City Name,Brand/Store Name,No. of Outlets,Full Address,Latitude,Longitude,Pincode,Area,Timing,isMall,MallName
,,,,,,,,,,
Chennai,Shopper's Stop,6,"No 2, KRM Centre, Chetpet Twin District Centre, Ground Floor, Harrington Road, Chetpet, Chennai - 600031 (Near RBS Bank & Chetpet Signal, Behind HP Towers)",13.0688473,80.2420739,600031,,,FALSE,
,,,"No 137, Grand Mall, Ground, 1st & 2nd Floor, Tambaram Velacheri Main Road, Velacheri, Chennai - 600042 (Near Railway Station, Dr Seetharam Nagar)",12.9719724,80.2203988,600042,,,TRUE,
,,,"No 136, Shymala Towers, 1st & 2nd Floor, Arcot Road, Saligramam, Chennai - 600093 (Near Avichi School).",13.0481696,80.1985705,600093,,,FALSE,
,,,"Marketstreet, Gopal Colony, Perambur, Chennai - 600011",13.1119107,80.236822,600011,,,FALSE,
,,,"STORE NO.G 58, VR MALL, JAWAHARLAL NEHRU RD, Anna Nagar West, Chennai - 600101",13.0805465,80.197132,600101,,,FALSE,
,,,"PHOENIX MARKET CITY MALL, UG51 VELACHERY MAIN ROAD, Chennai - 600001",12.9905058,80.2169764,600001,,,FALSE,
,,,,,,,,,,
,Brand Factory,5,"1 St Floor, Brigade Vantage, OMR Service Road, Kandanchavadi, Chennai - 600096 (Near Apollo Hospital)",12.9660902,80.247936,600096,,,FALSE,
,,,"Annai Traders, Suryagandhi Street, Thirumullaivoyal, Chennai - 600062 (Near Bible College)",13.1298002,80.1290384,600062,,,FALSE,
,,,"12th Ave, Santam Colony, Anna Nagar West Extension, Chennai, Tamil Nadu 600101",13.0884369,80.1950635,600101,,,FALSE,
,,,"Jones Towers, Velachery - Tambaram Main Rd, Kamakoti Nagar, Pallikaranai, Chennai, Tamil Nadu 600100",12.9428705,80.2079915,600100,,,FALSE,
,,,"No 54 Lattice Bridge, LB Rd, Thiruvanmiyur, Chennai, Tamil Nadu 600041",12.9818836,80.2534332,600041,,,FALSE,
,,,,,,,,,,
,Westside,8,"No; 84, G N Chetty Road, T Nagar, Chennai - 600017 (Opposite HDFC Bank)",13.0427541,80.2365284,600017,,,FALSE,
,,,"No 39/19 Dev Apartment, Gandhi Nagar 1st Main Road, Adyar, Chennai - 600020 (Near Spencer Super Market)",13.0069079,80.253345,600020,,,FALSE,
,,,"No 49/50 L Express Avenue Ground Floor Shop No S064/164, Whites Road, Royapettah, Chennai - 600014",13.0584546,80.2641844,600014,,,FALSE,
,,,"Gf & 1f, Bsr Mall, 378, Jothi Nagar, Thoraipakkam, Old Mahabalipuram Road, Thoraipakkam, Chennai - 600097",12.9495363,80.2404732,600097,,,TRUE,
,,,"V R Mall, Ground Floor, Shop No G5, G6, Jawaharlal Nehru Road, Anna Nagar, Chennai - 600040 (Near Metro Zone & Thirumangalam Metro Station, Next to Vee Care Hospital)",13.0805465,80.197132,600040,,,TRUE,
,,,"The Forum Vijaya Mall No 183, NSK Salai, Vadapalani, Chennai - 600026 (Opposite Kamala Cinema Hall)",13.0498937,80.2095018,600026,,,TRUE,
,,,"No 769 Spencer Plaza Phase II G-50, Mount Road, Chennai - 600002",13.0615102,80.2614606,600002,,,FALSE,
,,,"Express Avenue Mall, Club Road, Mount Road, Chennai - 600002 (Express Estates, No. 2, Anna Salai)",13.0584546,80.2641844,600002,,,TRUE,
,,,,,,,,,,
,Pantaloons,23,"No 150/151, Alpha Centre, 1st & 2nd Floor, North Usman Road, T Nagar, Chennai - 600017 (Opposite Murugan Idly Shop)",13.0451049,80.2322996,600017,,,FALSE,
,,,"No 149152, South Usman Road, T Nagar, Chennai - 600017 (Parthasarathi Puram)",13.0349248,80.2303151,600017,,,FALSE,
,,,"No 126, Nelson Manickam Road, Aminjikarai, Chennai - 600030 (Opposite Sangeetha Hotel, BNT COonnections)",13.069691,80.224276,600030,,,FALSE,
,,,"No 142, Phoenix Market City, Ground & 1st Floor, Velacheri Main Road, Velacheri, Chennai - 600042 (Near Guru Nanak College)",12.9905058,80.2169764,600042,,,FALSE,
,,,"No 165, State Highway 113, Valasaravakkam, Chennai - 600087 (Near Karpaga Vinayagar Colony)",13.0404251,80.1717748,600087,,,FALSE,
,,,"Express Avenue Mall, No S I 50 A & 50 B, Shop No 49 & 501, Whites Road, Royapettah, Chennai - 600014 (Near Jaztoon Restaurant)",13.0584546,80.2641844,600014,,,TRUE,
,,,"No 407/7, GST Road, Chromepet, Chennai - 600044 (Opposite Saravana Stores)",12.9558248,80.143314,600044,,,FALSE,
,,,"No 407/7, Chamber, Colony, Chromepet, Great Southern Trunk Road, Chromepet, Chennai - 600044",12.9575289,80.142475,600044,,,FALSE,
,,,"No 15 Ceebros Enclave 1st Floor, 1st Main Road, Adyar, Chennai - 600020 (Near Gandhi Nagar Near Titan Showroom)",13.0072613,80.2515691,600020,,,FALSE,
,,,"33/16, Adyar, Gandhi Nagar, Chennai - 600020",12.9721661,80.2045801,600020,,,FALSE,
,,,"Plot No B&C, Velachery Main Road, Selaiyur, Chennai - 600073 (Next to Viveks, Camp Road Junction)",12.9220804,80.1415555,600073,,,FALSE,
,,,"No 33, Vivira Mall, No F 110B & S 211A, First and Second Floor, Old Mahabalipuram Road, Navalur, Chennai - 603103",12.8504319,80.2262178,603103,,,TRUE,
,,,"No 23 & 24, Commercial Complex, Kottivakkam, Chennai - 600041 (Opposite Induslnd Bank)",12.972821,80.257938,600041,,,FALSE,
,,,"No 5/360, Rajiv Gandhi Salai, Okkiyam Thoraipakkam, Chennai - 600097",12.9300015,80.2325749,600097,,,FALSE,
,,,"No S36 & S37, 2nd Floor, No 44, Jawaharlal Nehru Road, Pillaiyar Koil Street, Anna Nagar West, Chennai - 600101",13.0847334,80.1984292,600101,,,FALSE,
,,,"V R Chennai Mall, 1st & 2nd Floor, Shop No F 63, Pillayar Kovil Street, Jawaharlal Nehru Road, Anna Nagar, Chennai - 600040",13.0805465,80.197132,600040,,,TRUE,
,,,"No 8, Main Road, Adyar, Chennai - 600020 (Dr Radhakrishna Nagar)",12.9945602,80.2589441,600020,,,FALSE,
,,,"Mogappair Plot No. 2/4, Door No. Jj253, Kamabar, J J Nagar, Elangosalai Road, Mogappair, Chennai - 600037 (Mogappair)",13.0871504,80.1847313,600037,,,FALSE,
,,,"No 162, Redhills Road, Ambattur, Chennai - 600053 (Near Rakki Theater)",13.1227814,80.1474268,600053,,,FALSE,
,,,"Plot No 2/4, Door No JJ253, Kambar Salai, Mogappair West, Chennai - 600037 (Opposite Reliance Digital)",13.084444,80.1701215,600037,,,FALSE,
,,,"1, 2, 1012, Icl Home Town, Arcot Road, Valasaravakkam, Chennai - 600087 (Valasaravakkam)",13.0528653,80.1423799,600087,,,FALSE,
,,,"STORE NO.G 58, VR MALL, JAWAHARLAL NEHRU RD, Anna Nagar West, Chennai - 600101",13.0805465,80.197132,600101,,,FALSE,
,,,"Marina Mall, Ground & First Floor No: 13/1a, Egattur Village, Thiruporur Taulk Kancheepuram, Thirup, Omr Road, Egattur, Chennai - 603103",12.8360623,80.2295172,603103,,,TRUE,
,,,,,,,,,,
,Max,18,"No 4/363, Old Mahabalipuram Road, Kandanchavadi, Chennai - 600096 (Opposite HCL, Near Saravana Bhavan)",12.9706388,80.2503826,600096,,,FALSE,
,,,"No 59/2, Velachery Main Road, Selaiyur, Chennai - 600073 (Near Police Station)",12.9228951,80.137472,600073,,,FALSE,
,,,"GST Road, Chromepet, Chennai - 600044 (Near Buhari Hotel)",12.8734833,80.0774199,600044,,,FALSE,
,,,"Max Kailash Buiding, Rajiv Gandhi Salai, Sholinganallur, Chennai - 600119",12.9207519,80.1967682,600119,,,FALSE,
,,,"No 173, Mount Poonamallee Road, Porur, Chennai - 600116 (Below Paradise Biriyani, Mugalivakkam)",13.0289028,80.1702939,600116,,,FALSE,
,,,"No 49 & 50 L, S201 A202 S298 S299 & S306, Express Avenue Mall, Whites Road, Royapettah, Chennai - 600014",13.0585092,80.2642491,600014,,,TRUE,
,,,"Phoenix Marketcity, No 142, G 40, Vealcherry Main Road, Velacheri, Chennai - 600042 (Near Gurunanak College)",12.9913026,80.2166199,600042,,,FALSE,
,,,"No 30/1624, Surapet Main Road, Ambattur, Chennai - 600053 (Vijayalakshmi Puram)",13.12302,80.149449,600053,,,FALSE,
,,,"No 152, North Usman Road, T Nagar, Chennai - 600017 (Opposite Murugan Idli Shop)",13.0453721,80.2328574,600017,,,FALSE,
,,,"2/546, East Coast Road, Neelankarai, Chennai - 600041 (Near Sea Shore St.Anthony's Church)",12.9574317,80.2572231,600041,,,FALSE,
,,,"No 179, Luz Church Road, Mylapore, Chennai - 600004 (Behind Navasakthi Vinayagar Temple)",13.0370497,80.267101,600004,,,FALSE,
,,,"No 10 & 11, City Centre, 2nd Floor, Dr Radha Krishnan Salai, Mylapore, Chennai - 600004 (Near Csi Kalyani Hospital)",13.0433676,80.2720114,600004,,,FALSE,
,,,"No 39, 1st Main Road, Jawahar Nagar, Chennai - 600082 (Opposite Tnsc Bank)",13.113203,80.2262949,600082,,,FALSE,
,,,"No 293, B R Towers, 2nd Floor, CTH Road, Avadi, Chennai - 600054 (Opposite GRT Jewellers)",13.1196622,80.0932896,600054,,,FALSE,
,,,"No 6/11, Saraswathy Tower, Ground Floor, LP Sastri Street, Redhills Road, Ambattur, Chennai - 600053 (Near Rakki Theatre)",13.1209552,80.1601361,600053,,,FALSE,
,,,"23/7, Tiruveedhiamman Koil Street, Arumbakkam, Chennai - 600106 (Temple)",13.0769502,80.210677,600106,,,FALSE,
,,,"The Marina Mall, Mahabalipuram Road, Egattur, Chennai - 603103 (Egattur Old)",12.8360379,80.2293307,603103,,,TRUE,
,,,"No 56, Narayanan Street, Pudupet, Chennai - 600002 (Pudupet Mosque Opposite)",13.0707947,80.2661097,600002,,,FALSE,
,,,,,,,,,,
,Lifestyle,6,"Plot No 213, Express Avenue Mall, 1st Floor, Shop No 49 & 50 L, Whites Road, Royapettah, Chennai - 600014 (Near LIC & Spencers)",13.0584546,80.2641844,600014,,,TRUE,
,,,"No 10 & 11, Citi Centre, Ground, 1st & 2nd Floor, Dr. Radhakrishnan Salai, Mylapore, Chennai - 600004 (Behind Kalyani Hospital)",13.0429239,80.2737717,600004,,,FALSE,
,,,"Forum Mall No 183 Ground Floor, NSK Salai, Vadapalani, Chennai - 600026 (Near Vijaya Hospital)",13.050965,80.2096056,600026,,,TRUE,
,,,"No 142, Phoenix Marketcity, 1st & 2nd Floor, Velacheri Main Road, Velacheri, Chennai - 600042",12.9905058,80.2169764,600042,,,FALSE,
,,,"V R Mall Ground First & Second Floor, Jawaharlal Nehru Road, Anna Nagar, Chennai - 600040 (Near Metro Zone & Thirumangalam Metro Station, Near Vee Care Hospital)",13.0805465,80.197132,600040,,,TRUE,
,,,"FIRST FLOOR (FF), A102, Express Avenue, No:2, Club House Road, Mount Road, Chennai - 600002",13.0584546,80.2641844,600002,,,FALSE,
,,,,,,,,,,
,Central,3,"No 190, Nsc Bose Road, Parrys, Chennai - 600001 (Opposite Bus Stand)",13.0883945,80.283264,600001,,,FALSE,
,,,"73, Strahans Rd, Dadashamakan, Purasaiwakkam, Chennai, Tamil Nadu 600012",13.0975294,80.2543602,600012,,,FALSE,
,,,"No.244, Trunk Road, Poonamallee, Chennai - 600056 (Opp govt hospital)",13.0508915,80.0948303,600056,,,FALSE,
,Accessorize,3,"No 49 & 50 Express Avenue Mall 1st Floor Shop No 104 B, Whites Road, Royapettah, Chennai - 600014 (Near Coffee Day)",13.0584546,80.2641844,600014,,,TRUE,
,,,"Ground Floor 12, Phoenix Mall, No, 142 Velachery Main Road, Velacheri, Chennai - 600042 (near gurunanak college)",12.9913026,80.2166199,600042,,,TRUE,
,,,"No 47B, Ground Floor, V R Chennai Mall, Jawaharlal Nehru Road, Anna Nagar, Chennai - 600040",13.0805465,80.197132,600040,,,TRUE,
,,,,,,,,,,
,Adidas,,"No 36 Dwaraka, Uthamar Gandhi Salai  High Road, Nungambakkam, Chennai - 600034 (Opposite Ganpat Hotel Near HDFC Bank)",13.0618828,80.2451634,600034,,,FALSE,
,,,"No C32, 2nd Avenue, Anna Nagar, Chennai - 600040 (Near Santhosh Super Stores)",13.0849031,80.2059474,600040,,,FALSE,
,,,"No D 94, 5th Avenue, Anna Nagar East, Chennai - 600102 (Opposite Buhari Hotel)",13.0839947,80.2245691,600102,,,FALSE,
,,,"No 49 & 50 L, Express Avenue Mall, 2nd Floor, No S 263, Whites Road, Royapettah, Chennai - 600014 (Near Royapettah Clock Tower)",13.0584546,80.2641844,600014,,,TRUE,
,,,"No 65 K G Complex Ground Floor, Ttk Road, Alwarpet, Chennai - 600018 (Opposite Sankara Hall)",13.0427264,80.2592849,600018,,,FALSE,
,,,"No 4, Ground Floor, Arcot Road, Porur, Chennai - 600116 (Near Sathya Showroom)",13.0383811,80.1629278,600116,,,FALSE,
,,,"No 73 Ground Floor, Casa Major Road, Egmore, Chennai - 600008 (Opposite Palimar Restaurant)",13.0725511,80.2521933,600008,,,FALSE,
,,,"No 158, Redhills Road, Ambattur, Chennai - 600053 (Oragadam)",13.1238202,80.150398,600053,,,FALSE,
,,,"Old No 195, New  No 5, Medavakkam Main Road, Adambakkam, Chennai - 600088 (Near Heritage Mart)",12.982551,80.1962274,600088,,,FALSE,
,,,"No 109, 100 Feet Road, Sankaran Avenue, Velacheri, Chennai - 600042 (Opposite Sangeetha Hotel, Near Titan Showroom)",12.9809388,80.2182213,600042,,,FALSE,
,,,"C/o The Forum Vijaya Mall, No 183, 2nd Floor, Shop No 223, Unit No 22, NSK Salai, Arcot Road, Vadapalani, Chennai - 600026 (Opposite Kamala Theatre)",13.0498937,80.2095018,600026,,,TRUE,
,,,"No 1 Tri Max Tower, Subraya Avenue, CP Ramaswamy Road, Alwarpet, Chennai - 600018 (Near Indian Bank)",13.0357093,80.2564346,600018,,,FALSE,
,,,"C/o Phoenix Market City, No 142, Upper Ground Floor, UG 05, Velachery Main Road, Velacheri, Chennai - 600042 (Near Guru Nanak College)",12.9905058,80.2169764,600042,,,FALSE,
,,,"No 1, Ampa Sky Walk, Shop No 121, Nelson Manickam Road, Aminjikarai, Chennai - 600030 (Near Old Arun Hotel)",13.0734711,80.2214432,600030,,,FALSE,
,,,"No:202  Anirudha Apartments, Velachery Main Road, Camp Road, Selaiyur, Chennai - 600073 (Opposite Viveks Showroom)",12.9220804,80.1415555,600073,,,FALSE,
,,,"Shop No 769, Spencer Plaza, Complex Shop No F 72 2nd Phase 1st Floor, Mount Road, Chennai - 600002 (Near World Of Titan, Anna Salai)",13.0615102,80.2614606,600002,,,FALSE,
,,,"No 12, Paper Mills Road, Peravallur-jawahar Nagar, Chennai - 600082 (Near Ram Nagar)",13.117994,80.2281053,600082,,,FALSE,
,,,"Shop No 6, East Coast Road, Sholinganallur, Chennai - 600119 (Near Akkarai Water Tank)",12.8959283,80.2473254,600119,,,FALSE,
,,,"No 49/50 No 148-154 Express Avenue 1st Floor, L Whites Road, Royapettah, Chennai - 600014 (Near Sketchers)",13.0587193,80.2639008,600014,,,FALSE,
,,,"No.5/314, Old Mahabalipuram Road, Karapakkam, Chennai - 600097 (Opp to Thalappakti)",12.9413193,80.2360925,600097,,,FALSE,
,,,"No 11, Brindavan Apartment, Khadar Nawaz Khan Road, Nungambakkam, Chennai - 600034 (Near Soch & Kalaniketan)",13.0608464,80.2493933,600034,,,FALSE,
,,,"No.GF & FF, 339/1-2A, 340A/2A, 1A, Old Mahabalipuram Road OMR, Okkiyam Thoraipakkam, Chennai - 600097",12.9340995,80.2332009,600097,,,FALSE,
,,,"122, Oppourtinity Towers, Aminjikarai, Chennai - 600030 (NEXT TO PANTALOON SHOWROOM)",13.0699152,80.2241482,600030,,,FALSE,
,,,"No 295, Sidco Estate, Ambattur, Chennai - 600053 (Aavin Booth)",13.109575,80.1679758,600053,,,FALSE,
,,,,,,,,,,
,Allen Solly,16,"No C 48, TNHB Office Complex, 2nd Avenue, Anna Nagar, Chennai - 600040 (Opposite Nalli Silks)",13.0850604,80.2149009,600040,,,FALSE,
,,,"No 21/174, Mount Poonamallee Road, Kattupakkam, Chennai - 600056 (Near Paradise Briyani, Swaminathan Nagar)",13.0424176,80.1235603,600056,,,FALSE,
,,,"No 49, Express Avenue, Shop No S 117 & 118, 1st Floor, Whites Road, Royapettah, Chennai - 600014 (Inside Ea)",13.0584546,80.2641844,600014,,,FALSE,
,,,"No 174 B, Arcot Road, Valasaravakkam, Chennai - 600087 (Opposite Landcar Apartment)",13.0436671,80.1829351,600087,,,FALSE,
,,,"No 105 & 106, Shop 3, Ground Floor, Raaj Towers, Nolambur Main Road, Mogappair West, Chennai - 600037 (Opposite Kamadhenu Jewellery)",13.0811694,80.1647632,600037,,,FALSE,
,,,"No F 46, VR Mall, Pillaiyar Koil Street, Jawaharlal Nehru Road, Anna Nagar, Chennai - 600040 (Near Vee Care Hospital)",13.0793931,80.19825,600040,,,TRUE,
,,,"No.19 Ground Floor, Anna Salai, Little Mount-saidapet, Chennai - 600015",13.0185451,80.2220243,600015,,,FALSE,
,,,"No 8 & 9, DR Ambedkar Nagar, Jawaharlal Nehru Road, 200ft Road, Kolathur, Chennai - 600099 (Opp to Srm Grand)",13.1256146,80.2060493,600099,,,FALSE,
,,,"No F 38, Phoenix Market City, 1st Floor, Velachery Main Road, Velacheri, Chennai - 600042 (Near Gurunanak College)",12.9905058,80.2169764,600042,,,FALSE,
,,,"No : 3, Thoraipakkam, 200 Feet Radial Road, Thoraipakkam, Chennai - 600097 (Next Toll Plaze)",12.9498652,80.2358357,600097,,,FALSE,
,,,"Navallur, Chennai - 600130",12.8459348,80.2265229,600130,,,FALSE,
,,,"G174 A, Ground Floor, 3rd Phase, Spencer Plaza, An, Tiruvatiswaranpet-Anna Salai, Chennai - 600002",13.0613,80.2611,600002,,,FALSE,
,,,"No.G-99, Spencer Plaza, Anna Salai, Chennai Ho, Chennai - 600001",13.0615102,80.2614606,600001,,,FALSE,
,,,"Plot No 1, Door No 45, 100 FtTaramani Link Road, Velacheri, Chennai - 600042",12.9990937,80.2075035,600042,,,FALSE,
,,,"No 121, Ground Floor & 1st Floor, GST Road, Chromepet, Chennai - 600044",12.95171,80.139821,600044,,,FALSE,
,,,"Shop No 66, Old No 35, TTK Road, Alwarpet, Chennai - 600018",13.042495,80.2595299,600018,,,FALSE,
,,,,,,,,,,
,American Eagle,2,"V R Chennai Mall, Ground Floor, Jawaharlal Nehru Road, Anna Nagar, Chennai - 600040",13.0805465,80.197132,600040,,,TRUE,
,,,"110, Arcot Road, Saligramam, Chennai - 600093",13.0476544,80.2024465,600093,,,FALSE,
,,,,,,,,,,
,AND,1,"No 49-50, Express Avenue Mall, 2nd Floor, Shop No S224, Whites Road Mount Road, Royapettah, Chennai - 600014 (Near Royapettah Hospital)",13.0584546,80.2641844,600014,,,TRUE,
,,,,,,,,,,
,Anita Dongre,2,"Second Floor, Whites Road, Royapettah, Chennai - 600 014 - 600014 Read more at: https://www.dealerservicecenter.in/list/store/house-of-anita-dongre/tamil-nadu/chennai",13.0575279,80.2609666,600014,,,FALSE,
,,,"Second Floor, 142 Velachery Main Road, Velachery, Chennai - 600 042 - 600042 Read more at: https://www.dealerservicecenter.in/list/store/house-of-anita-dongre/tamil-nadu/chennai",12.9202505,80.1863677,600042,,,FALSE,
,,,,,,,,,,
,Arrow,12,"No  AB-12, Portion 2, 2rd Avenue, Anna Nagar East, Chennai - 600102 (Opposite Ayyappan Kovil)",13.0897235,80.2188683,600102,,,FALSE,
,,,"No 44/101, Pondy Bazaar, T Nagar, Chennai - 600017 (Opposite Big Bazaar)",13.0402886,80.2391223,600017,,,FALSE,
,,,"No 49 & 50 I Shop No 106 1st Floor Express Avenue Mall, Whites Road, Royapettah, Chennai - 600014 (Near Melody Theatre)",13.0585092,80.2642491,600014,,,TRUE,
,,,"New No 142 Old No 66 Shop No F5 Phoenix Market City 1st Floor, Velachery Main Road, Velacheri, Chennai - 600042 (Near Guru Nanak College)",12.9905058,80.2169764,600042,,,FALSE,
,,,"No 145, GST Road, Chromepet, Chennai - 600044 (Opposite Vetri Theatre)",12.9568646,80.1435584,600044,,,FALSE,
,,,"The Forum Vijaya Mall Ground Floor Shop No 8, NSK Road, Arcot Road, Vadapalani, Chennai - 600026 (Near Vijaya Hospital)",13.0498937,80.2095018,600026,,,TRUE,
,,,"Bharat Nagar, Kilkattalai, Medavakkam Main Road, Madipakkam, Chennai - 600091",12.9641483,80.1879119,600091,,,FALSE,
,,,"No 142, Velachery Road, Velacheri, Chennai - 600042 (Near Indira Gandhi Nagar)",12.9913026,80.2166199,600042,,,FALSE,
,,,"Chottabai Centre, N H Road, Nungambakkam, Chennai - 600034",13.0586872,80.2480529,600034,,,FALSE,
,,,"No 4/3, Nolambur Main Road, Mogappair West, Chennai - 600037 (Near Nilgiris)",13.0810088,80.1653586,600037,,,FALSE,
,,,"V R Chennai Mall, 1st Floor, Jawaharlal Nehru Road, Anna Nagar, Chennai - 600040 (Near Annanagar Metro)",13.0805465,80.197132,600040,,,TRUE,
,,,"No:77, Medavakkam Main Road, Madipakkam, Chennai - 600091 (Near UTI Bus Stop,Poorvika Showroom)",12.9678296,80.1891772,600091,,,FALSE,
,,,,,,,,,,
,BATA,57,"No 1, Ramanathan Street, Usman Road, T Nagar, Chennai - 600017 (Opposite BKR Hotel)",13.0376597,80.2312106,600017,T Nagar,9am-10pm,FALSE,
,,,"No W-113, 3rd Avenue, Main Road, Anna Nagar, Chennai - 600040 (Opposite Kandaswamy Naidu College)",13.0856991,80.2175979,600040,Anna Nagar,9:30am-9:30pm,FALSE,
,,,"W 133 /123  No 7, AC Block, 2nd Avenue, Anna Nagar, Chennai - 600040 (Opposite Kandaswami College)",13.0849318,80.2119749,600040,Anna Nagar,10:30am-10pm,FALSE,
,,,"No 174, Velacherry Main Road, Rajakilpakkam, Chennai - 600073 (Opposite Loe Hotel)",12.922579,80.1622088,600073,Rajikilpakkam,10am-10pm,FALSE,
,,,"37C, Vikas Plaza, Velacheri Tambaram Road, Velacheri, Chennai - 600042 (Near Vijaya Nagar Bus Terminus)",12.9744409,80.220681,600042,Velacheri,10am_9:30pm,FALSE,
,,,"Old No 39, New No 17, Vgp Victory House, Anna Salai, Mount Road, Chennai - 600002 (Near Shanthi Theatre)",13.0674289,80.2710282,600002,Mount Road,9:30am-9pm,FALSE,
,,,"No 4/365, Kandanchavadi, Chennai - 600096 (NEAR SARAVANA BAVAN)",12.973012,80.249887,600096,Kandanchavadi,10am-10pm,FALSE,
,,,"No 178/179B, Old Mahabalipuram Road, Okkiyam Thoraipakkam, Chennai - 600097 (Near KFC, Raju Nagar)",12.9352375,80.2338351,600097,Okkiyam Thoraipakkam,10am-9:30pm,FALSE,
,,,"No 7 Shop No 01385, Ramakrishna Street, Tambaram West, Chennai - 600045 (Opposite Mosque & Near LIC)",12.9273635,80.1152723,600045,Tambaram West,10am-9pm,FALSE,
,,,"No 46, Pondy Bazaar, T Nagar, Chennai - 600017 (Near Rathna Store)",13.0405941,80.2369624,600017,T Nagar,10am-9:30pm,FALSE,
,,,"No 24, 10th Avenue, Ashok Nagar, Chennai - 600083 (Near Ashok Pillar)",13.0345534,80.2126208,600083,Ashok Nagar,9:30am-9pm,FALSE,
,,,"New No 1, Old No 37, Ground Floor, 1st Main Road, Adyar, Chennai - 600020 (Opposite Adyar Signal, Gandhi Nagar)",13.007151,80.258841,600020,Adyar,10am-10pm,FALSE,
,,,"Plot No 155, Door No 292, Old Mahabalipuram Road, Rajiv Gandhi Salai, Sholinganallur, Chennai - 600119 (Near Sholinganallur Signal & Max Showroom)",12.9207519,80.1967682,600119,Sholinganallur,10:30am-10pm,FALSE,
,,,"No 83/36, Adyar, Sardar Patel Road, Adyar, Chennai - 600020 (Near Gandhi Nagar)",13.0068389,80.2571635,600020,Adyar,10am-9:30pm,FALSE,
,,,"No 50, 1st Main Road, Nanganallur, Chennai - 600061 (Near Saravanna Square Hotel)",12.9827152,80.1921279,600061,Nanganallur,10am-10pm,FALSE,
,,,"No 24, TTK  Road, Alwarpet, Chennai - 600018 (Near Music Academy, Opposite to Hotel Raj Park)",13.0464195,80.2604073,600018,Alwarpet,10am-9:30pm,FALSE,
,,,"No 6, Gangadeeswarar Koil Street, Purasawalkam, Chennai - 600084 (Near Kay Showroom)",13.0856551,80.2529832,600084,Purasawalkam,10am-10pm,FALSE,
,,,"No 52 Jvl Towers Ground Floor, Nelson Manickam Road, Aminjikarai, Chennai - 600030 (Opposite Pantaloons, Near Sangeetha Hotel)",13.0699771,80.2247592,600030,Aminjikarai,10am-9:30pm,FALSE,
,,,"Shop No 19  Ampa Skywalk Mall, Aminjikarai, Chennai - 600030 (Near Nelson Manickam Road Poonamallee High Road Junction)",13.0734711,80.2214432,600030,Aminjikarai,10am-10pm,TRUE,Ampa Skywall Mall
,,,"No 52 Jvl Towers Ground Floor, Nelson Manickam Road, Aminjikarai, Chennai - 600030 (Opposite Pantaloons, Near Sangeetha Hotel)",13.0425866,80.2352884,600017,Aminjikarai,10am-9:30pm,FALSE,
,,,"Vijaya Forum Mall No 183 1st Floor Shop No 114, NSK Salai, Arcot Road, Vadapalani, Chennai - 600026 (Opposite Kamala Theatre)",13.0498937,80.2095018,600026,Vadapalani,10am-10pm,TRUE,Forum Vijaya Mall
,,,"No 159, K P Towers, Ground Floor, Arcot Road, Vadapalani, Chennai - 600026 (Opposite Vijaya Forum Mall, Near Vijaya Hospital)",13.0496223,80.2084482,600026,Vadapalani,10am-9:30pm,TRUE,KP Towers
,,,"No 91, Medavakkam Main Road, Keelakattalai, Chennai - 600117 (Next to Andhra Bank)",12.957516,80.1872117,600117,Keelakattalai,10am-10pm,FALSE,
,,,"No 50 AMM Towers No G1, Thiruvalluvar Road, Mogappair, Chennai - 600037 (Opposite Spartan School)",13.0863824,80.1793824,600037,Mogappair,9:30am-9:30pm,FALSE,
,,,"No 7, Velacheri Road, Medavakkam, Chennai - 600100 (Near United Colony, VGP Pushpa Nagar)",12.9190902,80.1878374,600100,"No 7, Velacheri Road, Medavakkam, Chennai - 600100 (Near United Colony, VGP Pushpa Nagar)",open 24hrs,FALSE,
,,,"No 49 A 2nd Phase Spencer Plaza Ground Floor, Anna Salai, Mount Road, Chennai - 600002 (Near LIC)",13.0615102,80.2614606,600002,"No 49 A 2nd Phase Spencer Plaza Ground Floor, Anna Salai, Mount Road, Chennai - 600002 (Near LIC)",10:30am-10pm,FALSE,
,,,"No 72, Nungambakkam High Road, Sterling Road, Nungambakkam, Chennai - 600034 (Near Sangeetha Veg Restaurant)",13.0637933,80.2436861,600034,"No 72, Nungambakkam High Road, Sterling Road, Nungambakkam, Chennai - 600034 (Near Sangeetha Veg Restaurant)",10am-10pm,FALSE,
,,,"No 21, Karuneegar Street, Adambakkam, Chennai - 600088 (Near Mount Railway Station)",12.994367,80.200255,600088,"No 21, Karuneegar Street, Adambakkam, Chennai - 600088 (Near Mount Railway Station)",10am-9pm,FALSE,
,,,"No 270, 271, 272, 273, 274, Krishna Court Ground, 1st Floor, R K Mutt Road, Mylapore, Chennai - 600004 (Near Luz Corner)",13.0362155,80.2676143,600004,"No 270, 271, 272, 273, 274, Krishna Court Ground, 1st Floor, R K Mutt Road, Mylapore, Chennai - 600004 (Near Luz Corner)",10am-10pm,FALSE,
,,,"No 112/116, Poonamalle High Road, Kumananchavadi, Chennai - 600056 (Next to EVP Marriage Hall)",13.0457114,80.1171557,600056,"No 112/116, Poonamalle High Road, Kumananchavadi, Chennai - 600056 (Next to EVP Marriage Hall)",9:30am-9pm,FALSE,
,,,"No 16 B, Casa Major Road, Egmore, Chennai - 600008 (Opposite Don Bosco School)",13.0704208,80.2550616,600008,"No 16 B, Casa Major Road, Egmore, Chennai - 600008 (Opposite Don Bosco School)",10am-10pm,FALSE,
,,,"No 370 Sai Towers, Arcot Road, Kodambakkam, Chennai - 600024 (Opp to Sekar Emporium & Next to Meenakshi College)",13.0537519,80.2279895,600024,"No 370 Sai Towers, Arcot Road, Kodambakkam, Chennai - 600024 (Opp to Sekar Emporium & Next to Meenakshi College)",10am-10pm,FALSE,
,,,"No 175, Arcot Road, Alwarthirunagar, Chennai - 600087 (Near KFC)",13.051205,80.20931,600087,"No 175, Arcot Road, Alwarthirunagar, Chennai - 600087 (Near KFC)",10:30am-10pm,FALSE,
,,,"No 1945/3, 18th Main Road, Anna Nagar, Chennai - 600040 (Opposite Vasantham Colony, Udayam Colony)",13.0945582,80.2058366,600040,"No 1945/3, 18th Main Road, Anna Nagar, Chennai - 600040 (Opposite Vasantham Colony, Udayam Colony)",10:30am-9pm,FALSE,
,,,"No 93, L B Road, Adyar, Chennai - 600020 (Near Globus)",12.9950337,80.2558678,600020,"No 93, L B Road, Adyar, Chennai - 600020 (Near Globus)",10am-9pm,FALSE,
,,,"No 1/153, Trunk Road, Iyyappanthangal, Chennai - 600056 (Opposite Depot)",13.0373643,80.138189,600056,"No 1/153, Trunk Road, Iyyappanthangal, Chennai - 600056 (Opposite Depot)",10am-9:30pm,FALSE,
,,,"Ac 15 Skm Plaza, 2nd Avenue, Anna Nagar, Chennai - 600040",13.0847106,80.2105842,600040,"Ac 15 Skm Plaza, 2nd Avenue, Anna Nagar, Chennai - 600040",open 24hrs,FALSE,
,,,"No 3, Poonamalee High Road, Porur, Chennai - 600116 (Near GK Cinemas)",13.034071,80.1612845,600116,"No 3, Poonamalee High Road, Porur, Chennai - 600116 (Near GK Cinemas)",10am-10pm,FALSE,
,,,"No 52/71, Arya Gowda Road, West Mambalam, Chennai - 600033 (Opposite to Hero Showroom, Near Krishna Sweets)",13.0431667,80.2220017,600033,"No 52/71, Arya Gowda Road, West Mambalam, Chennai - 600033 (Opposite to Hero Showroom, Near Krishna Sweets)",10am-9:30pm,FALSE,
,,,"No 44, Medavakkam Main Road, Madipakkam, Chennai - 600091 (Near Kumaran Cinema Hall)",12.9719352,80.192212,600091,"No 44, Medavakkam Main Road, Madipakkam, Chennai - 600091 (Near Kumaran Cinema Hall)",9:30am-9pm,FALSE,
,,,"No 1, Purasawalkam High Road, Vepery, Chennai - 600007",13.0867623,80.2583297,600007,"No 1, Purasawalkam High Road, Vepery, Chennai - 600007",9:30am-6:30pm,FALSE,
,,,"No:3, Arcot Road, Lameart Nagar, Virugambakkam, Chennai - 600092 (Near to MegaMart)",13.0444016,80.185804,600092,"No:3, Arcot Road, Lameart Nagar, Virugambakkam, Chennai - 600092 (Near to MegaMart)",10am-9:30pm,FALSE,
,,,"No 39/73 Plot No 6, Redhills Road, Ambattur, Chennai - 600053",13.1322838,80.169828,600053,"No 39/73 Plot No 6, Redhills Road, Ambattur, Chennai - 600053",9am-9pm,FALSE,
,,,"No 25 & 26, MTH Road, Ambattur, Chennai - 600053 (Opposite Stedford Hospital)",13.1017171,80.159055,600053,"No 25 & 26, MTH Road, Ambattur, Chennai - 600053 (Opposite Stedford Hospital)",9:30am-9pm,FALSE,
,,,"Atlr Swamy Hall, Opposite Siva Vishnu Temple, T Nagar, Chennai - 600017",13.0359937,80.2302188,600017,"Atlr Swamy Hall, Opposite Siva Vishnu Temple, T Nagar, Chennai - 600017",9:30am-9:30pm,FALSE,
,,,"No.1, Old Mahabalipuram Road, Sholinganallur, Chennai - 600119 (Near Signal)",12.881963,80.2277503,600119,"No.1, Old Mahabalipuram Road, Sholinganallur, Chennai - 600119 (Near Signal)",9am-10pm,FALSE,
,,,"No 8 Spectrum Mall Ground Floor, Paper Mills Road, Perambur, Chennai - 600011 (Opposite Big Bazzar)",13.1122705,80.2363842,600011,"No 8 Spectrum Mall Ground Floor, Paper Mills Road, Perambur, Chennai - 600011 (Opposite Big Bazzar)",9am-9pm,TRUE,BB-CHENNAI-PERAMBUR-SPECTRUM MALL
,,,"No 10, Harleyas Road, Kilpauk, Chennai - 600010",13.0834587,80.2428088,600010,"No 10, Harleyas Road, Kilpauk, Chennai - 600010",10am-10pm,FALSE,
,,,"No.159, KP Towers, Arcot Road, Vadapalani, Chennai - 600026 (Next to Kamala Theatre, Opposite to Forum Mall)",13.0493068,80.2093837,600026,"No.159, KP Towers, Arcot Road, Vadapalani, Chennai - 600026 (Next to Kamala Theatre, Opposite to Forum Mall)",10am-9:30pm,TRUE,
,,,"No 41/28, 70 Feet Road, Jawahar Nagar, Chennai - 600082 (Opp to Med Plus  Pharmacy)",13.1145514,80.2274391,600082,"No 41/28, 70 Feet Road, Jawahar Nagar, Chennai - 600082 (Opp to Med Plus  Pharmacy)",10am-9:30pm,FALSE,
,,,"NO 60, NAGAPPA NAICKER COMPLEX, RAJIV GANDHI SALAI, Karapakkam, Chennai - 600097 (OPPOSITE TO GANGAI AMMAN KOIL)",12.9171675,80.2296918,600097,"NO 60, NAGAPPA NAICKER COMPLEX, RAJIV GANDHI SALAI, Karapakkam, Chennai - 600097 (OPPOSITE TO GANGAI AMMAN KOIL)",9am-10pm,FALSE,
,,,"No 44, Gst Road, Pallavaram, Chennai - 600043 (Near HP Petrol Bunk)",12.96544,80.14837,600043,"No 44, Gst Road, Pallavaram, Chennai - 600043 (Near HP Petrol Bunk)",10:30am-9:30pm,FALSE,
,,,"Hush Puppies Store Chennai Citi Centre, Life Style No.10/11, Radhakrishnana Road, Mylapore, Chennai - 600004",13.0445,80.2598,600004,"Hush Puppies Store Chennai Citi Centre, Life Style No.10/11, Radhakrishnana Road, Mylapore, Chennai - 600004",10am-9pm,FALSE,
,,,"Shop No. Sl-26, Lower Ground Floor, Express Avenue Mall, Whites Road, Royapettah, Chennai - 600014",13.0584546,80.2641844,600014,"Shop No. Sl-26, Lower Ground Floor, Express Avenue Mall, Whites Road, Royapettah, Chennai - 600014",10am-10pm,TRUE,Express Avenue
,,,"# AA 136, Shanthi Colony, 4th Avenue, Anna Nagar, Chennai - 600040 (Opposite Union Bank)",13.0826878,80.2121039,600040,"# AA 136, Shanthi Colony, 4th Avenue, Anna Nagar, Chennai - 600040 (Opposite Union Bank)",10am-10pm,FALSE,
,,,"No 68, Ayaswamy Street, Tambaram West, Chennai - 600045",12.9266778,80.1156898,600045,"No 68, Ayaswamy Street, Tambaram West, Chennai - 600045",9:30am-9:30pm,FALSE,
,,,"No 829, Anna Salai, Mount Road, Chennai - 600002 (Chennai)",13.0683072,80.2714692,600002,"No 829, Anna Salai, Mount Road, Chennai - 600002 (Chennai)",10am-6pm,FALSE,
,,,,,,,,,,
,Biba,10,"No 10, Nageshwaran Street, T Nagar, Chennai - 600017 (Near Old Nalli)",13.0404162,80.2330274,600017,"No 10, Nageshwaran Street, T Nagar, Chennai - 600017 (Near Old Nalli)",10:30am-9:30pm,FALSE,
,,,"No 49 & 50 Express Avenue Mall Shop No 269 2nd Floor, Whites Road, Royapettah, Chennai - 600014 (Near Cloth Tower)",13.0584546,80.2641844,600014,"No 49 & 50 Express Avenue Mall Shop No 269 2nd Floor, Whites Road, Royapettah, Chennai - 600014 (Near Cloth Tower)",10am-8pm,TRUE,Max
,,,"Old No 24 New No 78, Sardar Patel Road, Adyar, Chennai - 600020 (Opposite Westside & Odyssey)",13.0065208,80.2561924,600020,"Old No 24 New No 78, Sardar Patel Road, Adyar, Chennai - 600020 (Opposite Westside & Odyssey)",10am-9pm,FALSE,
,,,"Shop No Y-214 2nd Avenue Umayal Achi Tower Annanagar Chennai, 2nd Avenue Anna Nagar, Anna Nagar, Chennai - 600040 (Next to Khazan Shop)",13.0851003,80.2114358,600040,"Shop No Y-214 2nd Avenue Umayal Achi Tower Annanagar Chennai, 2nd Avenue Anna Nagar, Anna Nagar, Chennai - 600040 (Next to Khazan Shop)",10:30am-10pm,FALSE,
,,,"Shop No 206 Ampa Skywalk Mall 2nd Floor, Nelson Manickam Road, Poonamallee High Road, Aminjikarai, Chennai - 600030",13.073498,80.221108,600030,"Shop No 206 Ampa Skywalk Mall 2nd Floor, Nelson Manickam Road, Poonamallee High Road, Aminjikarai, Chennai - 600030",10am-9:30pm,TRUE,Ampa Skywall Mall
,,,"No 142 Phoenix Market City S 52, Velachery Main Road, Velacheri, Chennai - 600042 (Near Guru Nanak College)",12.9905058,80.2169764,600042,"No 142 Phoenix Market City S 52, Velachery Main Road, Velacheri, Chennai - 600042 (Near Guru Nanak College)",10:30am-9:30pm,FALSE,
,,,"No 29, H M Center, Ground Floor, Nungambakkam High Road, Nungambakkam, Chennai - 600034 (Opposite Income Tax Office)",13.0571084,80.2482925,600034,"No 29, H M Center, Ground Floor, Nungambakkam High Road, Nungambakkam, Chennai - 600034 (Opposite Income Tax Office)",10:30am-9:30pm,FALSE,
,,,"No 65 Shop No 106 Ramee Mall 1st Floor, Anna Salai, Mount Road, Chennai - 600002 (Near Hyatt Hotel)",13.0430452,80.2486854,600002,"No 65 Shop No 106 Ramee Mall 1st Floor, Anna Salai, Mount Road, Chennai - 600002 (Near Hyatt Hotel)",10am-10pm,TRUE,Ramee Mall
,,,"Shop No 209, Gst Road, Chromepet, Chennai - 600044",12.9506579,80.1398789,600044,"Shop No 209, Gst Road, Chromepet, Chennai - 600044",10am-8pm,FALSE,
,,,"Shop No 33, 2nd Floor, V R Chennai Mall, Jawaharlal Nehru Road, Anna Nagar, Chennai - 600040",13.0805465,80.197132,600040,"Shop No 33, 2nd Floor, V R Chennai Mall, Jawaharlal Nehru Road, Anna Nagar, Chennai - 600040",10am-10pm,TRUE,VR Chennai
,,,,,,,,,,
,Calvin Klein,5,"No 32 G Platinum Building West Wing Ground Floor, Khader Nawaz Khan Road, Nungambakkam, Chennai - 600034 (Opposite Taj Hotel)",13.0601795,80.2481844,600034, Nungambakkam,10:00 am to 10:00 pm,FALSE,
,,,"No 142 Phoenix Market City Upper Ground Floor  52 & 53, Velacheri Main Road, Velacheri, Chennai - 600042 (Opposite Guru Nanak College)",12.9914801,80.2163179,600042,"Velacheri Main Road, Velacheri, (Opposite Guru Nanak College)",9:00 am to 10:00 pm,FALSE,
,,,"Shop No S 34 No 2 Upper Ground Floor Express Avenue Mall, Club House Road, Mount Road, Chennai - 600002",13.0584546,80.2641844,600002," Club House Road, Mount Road",10:00 Am to 10:00 Pm,TRUE,Express Avenue Mall
,,,"S.34, Whites Road, Royapettah, Chennai - 600014 (Near EA)",13.0568151,80.258375,600014, Royapettah,9:45am–7:45pm,FALSE,
,,,"Davidpuram, Kilpauk, Chennai - 600010",13.0845918,80.2411929,600010, Davidpuram,10am to 10pm,FALSE,
,,,,,,,,,,
,Crocs,3,"V R Chennai Mall, F 19, 1st Floor, Jawaharlal Nehru Road, Anna Nagar, Chennai - 600040",13.0805465,80.197132,600040,Anna Nagar,10:30 am to 10:00 pm,TRUE,V R Chennai Mall
,,,"No 23, Veeramanisalai, Kandanchavadi, Chennai - 600096 (Karunanidhi Chelan Nagar)",12.9665023,80.2494578,600096,Kandanchavadi,10:30 am to 10:00 pm,FALSE,
,,,"No. 75, Old No, 130, Ambattur Red Hills Rd, Vijayalakshmi Puram, Ambattur, Chennai - 600053",13.1264337,80.1535014,600053,Ambattur,10am–9pm,FALSE,
,,,,,,,,,,
,Fabindia,16,"No T 25, 7th Avenue, Besant Nagar, Chennai - 600090 (Opposite Santosh Hospital)",12.9957453,80.2694348,600090,Besant Nagar,10:00 am to 7:00 pm,FALSE,
,,,"New No 44 Old No 110, G N Chetty Road, T Nagar, Chennai - 600017 (Opposite Jain Temple)",13.041212,80.2353781,600017,"G N Chetty Road, T Nagar",10:30 am to 8:30 pm,FALSE,
,,,"Old No 34 & 36 New No 149 & 151, 4nd Avenue, Anna Nagar, Chennai - 600040 (Near Murugan Idlli Shop, Shanthi Colony)",13.0821992,80.2141808,600040,Anna Nagar,10:30 am to 8:30 pm,FALSE,
,,,"Door No 35, Old No 14B, Plot No 6, Block No 33, Ttk Road, Alwarpet, Chennai - 600018 (Opposite Sankara Hall)",13.0465335,80.2604895,600018,Alwarpet,10:30 am to 9:30 pm,FALSE,
,,,"No 3, Ilford House, Woods Road, Mount Road, Chennai - 600002 (Near Melody Cinema Hall & Behind Taj Hotel)",13.0621572,80.2643714,600002,Mount Road,10:30 am to 8:30 pm,FALSE,
,,,"No 49/50l Shop No 110 A Express Avenue Mall 1st Floor, Whites Road, Royapettah, Chennai - 600014",13.0584546,80.2641844,600014,Royapettah,11:00 am to 9:00 pm,TRUE,No 49/50l Shop No 110 A Express Avenue Mall 1st Floor
,,,"Old No 24, New No 49, Fourth Avenue, Ashok Nagar, Chennai - 600083 (Opposite Kun Honda Showroom)",13.0427699,80.2169416,600083,Ashok Nagar,10:30 am to 8:30 pm,FALSE,
,,,"No 142 S53 Phoenix Marketcity 2nd Floor, Velachery  Main Road, Velacheri, Chennai - 600042 (Near Gurunanak College)",12.9905058,80.2169764,600042,Velacheri,10:00 am to 10:00 pm,FALSE,
,,,"V R Chennai Mall 2nd Floor, Jawaharlal Nehru Road, Anna Nagar, Chennai - 600040",13.0805465,80.197132,600040,Anna Nagar,10:00 am to 10:00 pm,TRUE,V R Chennai Mall 2nd Floor
,,,"New No 15, Old No 9, Khader Nawaz Khan Road, Nungambakkam, Chennai - 600034 (Opposite Cafe Coffee Day)",13.0609703,80.251516,600034,Nungambakkam,10:30 am to 8:30 pm,FALSE,
,,,"Plot No 1 - 6, VGP Main Road, East Coast Road, Sholinganallur, Chennai - 600119 (Near Akkadian Water Tank-shop In A Park Complex)",12.914221,80.250524,600119,Sholinganallur,10:30 am to 8:30 pm,FALSE,
,,,"28 (First Floor, Vikram Plaza, Annamalai Nagar, Tiruchirappalli, Karur Bypass Road, Chennai - 600018",10.8290274,78.6858606,600018,Tiruchirappalli,10:30 am to 9:00 pm,FALSE,
,,,"No 183-188 The Forum Vijaya Mall Shop No 121 1st Floor, Arcot Road, Vadapalani, Chennai - 600026",13.0498937,80.2095018,600026,Vadapalani,10:00 am to 10:00 pm,TRUE,No 183-188 The Forum Vijaya Mall Shop No 121 1st Floor
,,,"18, E Coast Road, Akkarai, Chennai - 600115",12.8919163,80.2460102,600115,Akkarai,10:00 am to 10:00 pm,FALSE,
,,,"299, Old Mahabalipuram Road, Nehru Nagar, Kandanchavadi, Chennai - 600096",12.9714609,80.2498516,600096,Kandanchavadi,	10:30am–9:30pm,FALSE,
,,,"394 Old Mahabalipuram Road, Kottivakkam, Chennai - 600041 (Near Paradise Restaurant Rajiv Gandhi Salai, Nehru Nagar)",12.9301,80.2312,600041,Kottivakkam,Not available,FALSE,
,,,,,,,,,,
,Forever 21,2,"Express Avenue Mall, Shop No S48/S54, Ground Floor, Royapettah, Chennai - 600014",13.0584546,80.2641844,600014,Royapettah,10:00 am to 10:30 pm,TRUE,Express Avenue Mall
,,,"V R Chennai Mall, Ground Floor, Jawaharlal Nehru Road, Anna Nagar, Chennai - 600040",13.0805465,80.197132,600040,Anna Nagar,10:00 am to 10:00 pm,TRUE,V R Chennai Mall
,,,,,,,,,,
,Forever New,3,"No 49 & 50 L No 19 Express Avenue 1st Floor Shop No 159, Whites Road, Royapettah, Chennai - 600014",13.0584546,80.2641844,600014,Royapettah,10:00 am to 8:00 pm,FALSE,
,,,"Phoenix Market City, 145, Indira Gandhi Nagar, Velachery, Velachery Main Road, Chennai - 600042",12.9905058,80.2169764,600042,Velachery,10am–9pm,FALSE,
,,,"V R Mall, Ground Floor, Unit No G 13, Jawaharlal Nehru Road, Anna Nagar, Chennai - 600040 (Near Metro Zone & Thirumangalam Metro Station & Vee Care Hospital)",13.0805465,80.197132,600040,Anna Nagar,10:00 am to 10:30 pm,TRUE,V R Mall
,,,,,,,,,,
,Global Desi,3,"1st Floor,, Forum Vijaya Mall, Arcot Road, Vadapalani, Chennai, Tamil Nadu 600026 ",13.0498937,80.2095018,600026,Vadapalani,Temporarily Closed,TRUE, Forum Vijaya Mall
,,,"Second Floor, Express Mall, Whites Rd, Chennai, Tamil Nadu 600014",13.0584546,80.2641844,600014,Whites Rd,11am–10pm,TRUE, Express Mall
,,,"Shop S - 04, Velachery Rd, Indira Gandhi Nagar, Velachery, Chennai, Tamil Nadu 600042",12.9912955,80.2198031,600042,Velachery,11am–8pm,FALSE,
,,,,,,,,,,
,Globus,1," 113, Mena Kampala Arcade, 114, Sir Theagaraya Rd, Parthasarathi Puram, T. Nagar, Chennai, Tamil Nadu 600017",13.0403416,80.2430902,600017,"Parthasarathi Puram, T. Nagar",10:30am–9:30pm,FALSE,
,,,,,,,,,,
,H&M,,"Anna Salai, No. 2, Club House Rd, Royapettah, Chennai, Tamil Nadu 600002",13.06136,80.263855,600002,Royapettah,,FALSE,
,,,"Jawaharlal Nehru Rd, Thirumangalam, Anna Nagar West Extension, Chennai, Tamil Nadu 600040",13.0828949,80.1986805,600040,,,FALSE,
,,,"142, Velachery Rd, Indira Gandhi Nagar, Velachery, Chennai, Tamil Nadu 600042",12.9913026,80.2166199,600042,,,FALSE,
,,,,,,,,,,
,Indya,3,"S-64 B, Second Floor, VR Mall, N0.44, Pillayar Koli Street, Jawaharlal Nehru Rd, Anna Nagar, Chennai, Tamil Nadu 600040",13.081417,80.1961304,600040,,,TRUE,
,,,"S-272, 2nd Floor, Express Avenue Mall, Patullos Rd, Royapettah, Chennai, Tamil Nadu 600014",13.0584546,80.2641844,600014,,,TRUE,
,,,"Phoenix Market City, S-21, 2nd Floor, Velachery Rd, Chennai, Tamil Nadu 600042",12.9905058,80.2169764,600042,,,FALSE,
,,,,,,,,,,
,Jack & Jones,2,"50, 4th Ave, Block AI, AI Block, Anna Nagar, Chennai, Tamil Nadu 600040",13.0823531,80.2102782,600040,,,FALSE,
,,,"VR Mall, Unit No: G32/33. Ground Floor, Chennai #44 Pillayar Koli Street, Jawaharlal Nehru Rd, Anna Nagar, Chennai, Tamil Nadu 600040",13.0805465,80.197132,600040,,,TRUE,
,,,,,,,,,,
,Kazo,1,"Shop No.-G-22,GF, 142, Velachery Rd, Velachery, Chennai, Tamil Nadu 600042",12.9912664,80.2165262,600042,,,FALSE,
,,,,,,,,,,
,Lacoste,3,"Shop no S-051&52,Ground Floor,Express avenue mall,No 49, 50 L, Whites Rd, Royapettah, Chennai, Tamil Nadu 600014",13.058766,80.2644472,600014,,,FALSE,
,,,"Shop 08, 142, Velachery Rd, Indira Gandhi Nagar, Velachery, Chennai, Tamil Nadu 600042",12.9919161,80.2166744,600042,,,FALSE,
,,,"METROZONE TOWERS, G46 Ground floor VR Chennai, Anna Nagar, Chennai, Tamil Nadu 600040",13.081417,80.1961304,600040,,,FALSE,
,,,,,,,,,,
,Gap,1,"Ground floor, VR Chennai, Jawaharlal Nehru Rd, Anna Nagar West, Chennai, Tamil Nadu 600040",13.0805465,80.197132,600040,,,FALSE,
,,,,,,,,,,
,Lee,,"Shop No FF/127, Empress City Mall, Empress Mill's Chawl, Cotton Market, Empress City, Nagpur, Maharashtra 440018",21.1479681,79.093587,,,,,
,,,,,,,,,,
,Levi's ,18,"Balaji Enterprises shop No.B1 New Door No:102, OLD, No.81, Pasumpon Muthuramalinga Thevar Rd, Raja Annamalai Puram, Chennai, Tamil Nadu 600018",13.028666,80.249798,600018,Raja Annamalai Puram,10am–10pm,FALSE,
,,,"Ground Floor, Shop No. 108, Rajalakshmi Mahal, Sir Theagaraya Rd, Parthasarathi Puram, T. Nagar, Chennai, Tamil Nadu 600017",13.0411867,80.2352216,600017,"Parthasarathi Puram, T. Nagar",10am–10pm,FALSE,
,,,"Shop number f5 1st floor vr mall, no 44, Jawaharlal Nehru Rd, Anna Nagar, Chennai, Tamil Nadu 600040",13.0805465,80.197132,600040,Anna Nagar,10:30am–10:30pm,FALSE,
,,,"Shop No.128 First Floor, Express Avenue, Royapettah, Chennai, Tamil Nadu 600014",13.0584786,80.2639084,600014,Royapettah,10am–10pm,FALSE,
,,,"Old No. 19, New. No. 8, 3rd Cross Street, Kasturiba Nagar, Chennai, Adyar, Tamil Nadu 600020",13.0045496,80.2515207,600020,Kasturiba Nagar,10am–10pm,FALSE,
,,,"Unit No, G2, Velachery Rd, Indira Gandhi Nagar, Velachery, Chennai, Tamil Nadu 600042",12.9921871,80.2167833,600042,Velachery,10am–10pm,FALSE,
,,,"Shop No.55A, Ground Floor, Express Avenue, Royapettah, Chennai, Tamil Nadu 600014",13.0584546,80.2641844,600014,Royapettah,10am–10pm,FALSE,
,,,"Old No-193 New No- 212, Kannayiram Street, Grand Southern Trunk Rd, Radha Nagar, Chromepet, Chennai, Tamil Nadu 600044",12.9974663,80.1908107,600044,Chromepet,10am–10pm,FALSE,
,,,"3rd Cross St, Valmiki Nagar, Raja Garden, Lakshman Perumal Nagar, Chennai, Tamil Nadu 600041",12.9726203,80.2592848,600041,Lakshman Perumal Nagar,10am–10pm,FALSE,
,,,"Forum Vijaya Mall, UG-19, Vadapalani, Chennai, Tamil Nadu 600026",13.0498937,80.2095018,600026,Vadapalani,10am–10pm,TRUE,Forum Vijaya Mall
,,,"No 41, Nungambakkam High Rd, Ponnangipuram, Nungambakkam, Chennai, Tamil Nadu 600034",13.0587721,80.2480264,600034,Nungambakkam,10am–10pm,FALSE,
,,,"Block AD, 12, 2nd Ave, AB Block, Shanthi Colony, Anna Nagar, Chennai, Tamil Nadu 600040",13.084543,80.217053,600040,Anna Nagar,9am–10pm,FALSE,
,,,"Velachery Rd, Aarthi Nagar, Selaiyur, Chennai, Tamil Nadu 600059",12.9225832,80.1364707,600059,Selaiyur,10am–10pm,FALSE,
,,,"Pasumpon Muthuramalinga Thevar Rd, Rathna Nagar, Nandanam, Chennai, Tamil Nadu 600028",13.0297913,80.2429717,600028,Nandanam,10am–10pm,FALSE,
,,,"The Marina Mall, Upper Ground Floor, G-14 Omr Road, Egattur, Village, Chennai, Tamil Nadu 603103",12.8360379,80.2293307,603103,Egattur,10am–9pm,TRUE,The Marina Mall
,,,"No 21, SH 49, Valmiki Nagar, Raja Garden, Kottivakkam, Chennai, Tamil Nadu 600041",12.9729327,80.2583537,600041,Kottivakkam,10am–10pm,FALSE,
,,,"19/20, Nungambakkam High Rd, Ponnangipuram, Tirumurthy Nagar, Nungambakkam, Chennai, Tamil Nadu 600034",13.0619099,80.244908,600034,Nungambakkam,10am–10pm,FALSE,
,,,"SH 113, Thandavamoorthy Nagar, Valasaravakkam, Chennai, Tamil Nadu 600087",13.0419931,80.1771973,600087,Valasaravakkam,10am–10pm,FALSE,
,,,,,,,,,,
,,,,,,,,,,
,Mango ,2,"VR-CHENNAI, KOYAMBEDU VILLAGE, Chennai, Chennai, Tamil Nadu 600040",13.0805465,80.197132,600040,KOYAMBEDU VILLAGE,10am–10pm,FALSE,
,,,"19 & 20, Ground Floor, 17, Pattullos Rd, Express Estate, Thousand Lights, Chennai, Tamil Nadu 600002",13.0584546,80.2641844,600002,Thousand Lights,10am–10pm,FALSE,
,,,,,,,,,,
,Manyavar,15,"50, Thirumalai Pillai Rd, Balaji Nagar Extn-II, Vanuvampet, T. Nagar, Chennai, Tamil Nadu 600017",13.0506642,80.240346,600017,T. Nagar,10:30am–9:30pm,FALSE,
,,,"SN 155 A, 1st Floor, Express Mall 2 Club House Road, Anna Salai, Chennai, Tamil Nadu 600002",13.0588677,80.2647277,600002,,,TRUE,
,,,"Shop No 106, 1st Floor, Forum Mall 183 NSK Salai, Arcot Rd, near Green Park Hotel, Vadapalani, Chennai, Tamil Nadu 600026",13.0511013,80.208301,600026,,,TRUE,
,,,"Sugar Trends, B-2, 2nd Ave, B Block, Anna Nagar, Chennai, Tamil Nadu 600026",13.084332,80.2208722,600026,,,FALSE,
,,,"81, Thirumalai Pillai Rd, opposite Vani Mahal, Thirumurthy Nagar, Satyamurthy Nagar, T. Nagar, Chennai, Tamil Nadu 600017",13.0455763,80.24013,600017,,,FALSE,
,,,"Mall, No S59 & 142, Phoenix Market City, Main Rd, Velachery, Chennai, Tamil Nadu 600042",12.9905058,80.2169764,600042,,,TRUE,
,,,"Unit No S36, 2nd Floor, VR Chennai Mall, Jawaharlal Nehru Rd, Annai Sathya Nagar, Chennai, Tamil Nadu 600040",13.0805465,80.197132,600040,,,TRUE,
,,,"7th Cross StreetRajalakshmi Nagar,Velachery Shop No.17 & 18 1st floor, near Coal Barbeque, Chennai, Tamil Nadu 600042",12.9860619,80.2182291,600042,,,FALSE,
,,,"53, 1, Cathedral Rd, Gopalapuram, Chennai, Tamil Nadu 600086",13.044755,80.258536,600086,,,FALSE,
,,,"Shop No. A , New 208, 209 & 210, Grand Southern Trunk Rd, Radha Nagar, Chromepet, Chennai, Tamil Nadu 600044",12.950585,80.139788,600044,,,FALSE,
,,,"50, Thirumalai Pillai Rd, Balaji Nagar Extn-II, Vanuvampet, T. Nagar, Chennai, Tamil Nadu 600017",13.0476668,80.2395535,600017,,,FALSE,
,,,"AnnaSalai,Teynampet Shop No.520 Ground, 1st floor, near Courtyard Marriot, Chennai, Tamil Nadu 600018",13.0460041,80.2478248,600018,,,FALSE,
,,,"89, Sir Theagaraya Rd, Parthasarathi Puram, T. Nagar, Chennai, Tamil Nadu 600017",13.0407516,80.2383286,600017,,,FALSE,
,,,"Marina Mall , Shop 25, No-13/1A , OMR Road Egattur, Thirporur thaluk, Chengalpattu, Tamil Nadu 603103",12.8360379,80.2293307,603103,,,TRUE,
,,,"bus depot, 22/1, Sardar Patel Road (Next to Metro Shoes - Opp to gandhi nagar, Adyar, Chennai, Tamil Nadu 600020",13.006241,80.253832,600020,,,FALSE,
,,,,,,,,,,
,Marks & Spencer,8,"49, Express Avenue Mall- A-001 & A-101, 50, Whites Rd, Royapettah, Chennai, Tamil Nadu 600014",13.0584546,80.2641844,600014,,,TRUE,
,,,"Market City - Chennai Phoenix Market City Mall Unit no. UG-44, Tamil Nadu 600042",12.9905058,80.2169764,600042,,,TRUE,
,,,"VR Chennai Shop No. G37-F34 & F35 VR, Jawaharlal Nehru Rd, Chennai, Tamil Nadu 600040",13.0805465,80.197132,600040,,,FALSE,
,,,"Express Avenue Mall A-001 & A, 101, Whites Rd, Royapettah, Chennai, Tamil Nadu 600014",13.0588182,80.2643181,600014,,,TRUE,
,,,"Ground Floor, Phoenix Marketcity Mall Unit NOS UG-19-20 Upper, 142, Velachery Rd, Chennai, Tamil Nadu 600042",12.9905058,80.2169764,600042,,,TRUE,
,,,"CHENNAI- MARINA MALL SHOP NO-G028,GROUNDFLOOR,,13/1A, Egattur, Tamil Nadu 603103",12.8360379,80.2293307,603103,,,FALSE,
,,,"No. 142, Phoenix Market City, Velachery Road, Indira Gandhi Nagar, Chennai, Tamil Nadu 600042",12.9919021,80.217322,600042,,,FALSE,
,,,"VR Mall, Thirumangalam, Chennai, Tamil Nadu 600040",13.0805465,80.197132,600040,,,TRUE,
,,,,,,,,,,
,Mufti,,"Poonamallee High Rd, Aminjikarai, Chennai, Tamil Nadu 600029",13.074077,80.2247187,600029,,,FALSE,
,,,"19, Pattullos Rd, Express Estate, Royapettah, Chennai, Tamil Nadu 600002",13.0595261,80.2624778,600002,,,FALSE,
,,,"Phoenix Market City, Velachery Rd, Indira Gandh Nagar, Velachery, Chennai, Tamil Nadu 600042",12.9905058,80.2169764,600042,,,FALSE,
,,,"Shop no 212 2nd floor Ampa Skywalk, Nelson Manickam Rd, Aminjikarai, Chennai, Tamil Nadu 600029",13.0734711,80.2214432,600029,,,FALSE,
,,,,,,,,,,
,Nautica,1,"35JW+8C7, Thirumangalam, Anna Nagar West Extension, Chennai, Tamil Nadu 600040",13.0807875,80.1960469,600040,,,FALSE,
,,,,,,,,,,
,Nike,7,"S-261, Second Floor, No 49/50 L, Express Avenue Mall, Whites Rd, Royapettah, Chennai, Tamil Nadu 600014",13.058661,80.264078,600014,,,TRUE,
,,,"Shop No. 220, 1, TT Krishnamachari Rd, Parthasarathypuram, Teynampet, Chennai, Tamil Nadu 600018",13.0480066,80.2615036,600018,,,FALSE,
,,,"Shop No. F-29, 1st Floor, VR Mall, Jawaharlal Nehru Rd, Anna Nagar, Chennai, Tamil Nadu 600040",13.0805465,80.197132,600040,,,TRUE,
,,,"Shop No.220, Second Floor, Forum Vijaya Mall Green Park Private Entrance, Road, Vadapalani, Chennai, Tamil Nadu 600026",13.0506833,80.2096892,600026,,,TRUE,
,,,"Phoenix Market City, Unit No.G1A, Velachery, Chennai, Tamil Nadu 600042",12.9905058,80.2169764,600042,,,FALSE,
,,,"Spencer Plaza, No G 174, Anna Salai, Chennai, Tamil Nadu 600002",13.0615102,80.2614606,600002,,,FALSE,
,,,"Shop No. 4, 31, East Coast Rd, Palavakkam, Chennai, Tamil Nadu 600041",12.9605978,80.2561224,600041,,,FALSE,
,,,,,,,,,,
,ONLY,5,"Velachery Rd, Indira Gandhi Nagar, Velachery, Chennai, Tamil Nadu 600042",12.9921099,80.2190824,600042,Velachery,"	
9am–7pm",FALSE,
,,,"Whites Rd, Express Estate, Thousand Lights, Chennai, Tamil Nadu 600002",13.0575279,80.2609666,600002,Thousand Lights,10am–9pm,FALSE,
,,,"No. F-93A, Spencer Plaza, Mount Road, Anna Salai, Thousand Lights, Chennai, Tamil Nadu 600002",13.0615102,80.2614606,600002,Thousand Lights,10am–9:30pm,FALSE,
,,,"VR Mall, Anna Nagar West, Anna Nagar West Extension, Chennai, Tamil Nadu 600040",13.0805465,80.197132,600040,Anna Nagar West Extension,10:30am–9pm,TRUE,VR Mall
,,,"Ellis Rd, Border Thottam, Padupakkam, Triplicane, Chennai, Tamil Nadu 600014",13.0639413,80.2715849,600014,Triplicane,11am–8pm,FALSE,
,,,,,,,,,,
,Pepe Jeans,7,"8, Kasturba Nagar 3rd Cross St, Kasturba Nagar, Adyar, Chennai, Tamil Nadu 600020",13.004597,80.251604,600020, Adyar,10am–10pm,FALSE,
,,,"10/11, Dr Radha Krishnan Salai, Loganathan Colony, Mylapore, Chennai, Tamil Nadu 600005",13.0429239,80.2737717,600005,Mylapore,10am–9:30pm,FALSE,
,,,"S-131 1st floor no 49_50, Whites Rd, Chambers II, Royapettah, Chennai, Tamil Nadu 600014",,,600014,Royapettah,10:30am–9:30pm,FALSE,
,,,"VR Chennai, Metro Zone, No.44, Pillaiyar Koil Street, Jawaharlal Nehru Road Shop No. F55, 1st Floor, Chennai, Tamil Nadu 600040",13.0805465,80.197132,600040,Jawaharlal Nehru Road,10:30am–9:30pm,FALSE,
,,,"Indira Gandhi Nagar, Velachery, Chennai, Tamil Nadu 600042",12.9911577,80.2174914,600042,Velachery,10am-10pm,FALSE,
,,,"Pantheon Rd, Egmore, Chennai, Tamil Nadu 600008",13.0719764,80.2596711,600008,Egmore,10:30am–8:30pm,FALSE,
,,,"Purasawalkam High Rd, Purasaiwakkam, Chennai, Tamil Nadu 600010",13.0856661,80.25228,600010,Purasaiwakkam,10am–10pm,FALSE,
,,,,,,,,,,
,Peter England,42,"Shop No, 78, Sir Theagaraya Rd, Pondy Bazaar, Parthasarathi Puram, T. Nagar, Chennai, Tamil Nadu 600017",13.0408956,80.2371474,600017,T. Nagar,10am–10pm,FALSE,
,,,"2nd Ave, X Block, Tower Park, Anna Nagar, Chennai, Tamil Nadu 600040",13.0847796,80.2143465,600040,Anna Nagar,10am–10pm,FALSE,
,,,"North Point Complex, Door No. 216, Shop No. 2, Purasawalkam High Rd, Chennai, Tamil Nadu 600007",13.0857662,80.2528607,600007,Purasawalkam High Rd,10am–9:30pm,FALSE,
,,,"C-48, Tamil Nadu Housing Board Office Complex, 2nd Ave, Anna Nagar, Chennai, Tamil Nadu 600040",13.0850604,80.2149009,600040,Anna Nagar,10am–8pm,FALSE,
,,,"VR MALL, F-43 first floor, Pillayar Koil St, Jawaharlal Nehru Nagar, Anna Nagar, Chennai, Tamil Nadu 600040",13.0805465,80.197132,600040,Anna Nagar,11am–10pm,FALSE,
,,,"Shop No. 123, First Floor, Forum Vijaya Mall, 183, NSK Salai, Vadapalani, Chennai, Tamil Nadu 600026",13.0498937,80.2095018,600026,Vadapalani,10am–9:30pm,TRUE,Forum Vijaya Mall
,,,"156, Grand Northern Trunk Rd, Kannagi Nagar, Kolathur, Chennai, Tamil Nadu 600082",13.1272809,80.2090661,600082,Kolathur,10am–9:30pm,FALSE,
,,,"No 12, Abdul Razzak St, Tambaram West, Tambaram, Chennai, Tamil Nadu 600045",12.9261388,80.1153456,600045,Tambaram,10am–9:30pm,FALSE,
,,,"Shop No. S-116, First Floor, Express Avenue, Chennai, Tamil Nadu 600014",13.0584546,80.2641844,600014,Express Avenue,10am–9pm,FALSE,
,,,"26, 1st Main Rd, Kasturba Nagar, Adyar, Chennai, Tamil Nadu 600020",13.00656,80.2497344,600020,Adyar,10am–8pm,FALSE,
,,,"G-1, Thirumangai Appartments, Poonamallee High Rd, Kumananchavadi, Chennai, Tamil Nadu 600056",13.0459332,80.1178367,600056,Kumananchavadi,10am–9pm,FALSE,
,,,"Ampa skywalk No.1, P.H.Road, Nelson Manickam Road, Chennai, Tamil Nadu 600029",13.0734711,80.2214432,600029,Nelson Manickam Road,10am–10pm,FALSE,
,,,"No.183, 57, Grand Northern Trunk Rd, Kumar Nagar, Erukkancheri, Perambur, Chennai, Tamil Nadu 600118",13.1245525,80.2484458,600118,Perambur,10am–9pm,FALSE,
,,,"353, Poonamallee High Rd, Pallavan Nagar, Maduravoyal, Chennai, Tamil Nadu 600095",13.0639002,80.1689125,600095,Maduravoyal,9:30am–9:30pm,FALSE,
,,,"174, Arcot Rd, Karpaga Vinayagar Colony, Valasaravakkam, Chennai, Tamil Nadu 600087",13.0436713,80.1829848,600087,Valasaravakkam,10am–8pm,FALSE,
,,,"V R, Jawaharlal Nehru Rd, Annanagar, Anna Nagar West, Anna Nagar, Chennai, Tamil Nadu 600040",13.0805465,80.197132,600040,Anna Nagar,11am–10pm,FALSE,
,,,"Paper Mills Road, Gopal Colony, Perambur, Chennai, Tamil Nadu 600011",13.1134692,80.2356843,600011,Perambur,10am–10pm,FALSE,
,,,"No-187, GNT Rd, Red Hills, Chennai, Tamil Nadu 600052",13.1919923,80.1847964,600052,Red Hills,10am–9pm,FALSE,
,,,"26, Kasturba Nagar 3rd Cross St, Rukmani Nagar, Adyar, Chennai, Tamil Nadu 600020",13.0028536,80.2517848,600020,Adyar,10am–10pm,FALSE,
,,,"169-119, Arcot Rd, East Kamakoti Nagar, Karpaga Vinayagar Colony, Valasaravakkam, Chennai, Tamil Nadu 600087",13.0402729,80.170963,600087,Valasaravakkam,9am–10pm,FALSE,
,,,"Bus stand, 209, Grand Southern Trunk Rd, near Chrompet, Chromepet, Chennai, Tamil Nadu 600044",12.9512921,80.1402944,600044,Chromepet,10am–9pm,FALSE,
,,,"New no.204 (Old no.145), Main road, Mangadu, Tamil Nadu 600122",13.0275851,80.1112257,600122,Mangadu,10am–9pm,FALSE,
,,,"112/7, Thiruvalluvar Salai, Thiruvanmiyur, Chennai, Tamil Nadu 600041",12.9827413,80.2366126,600041,Thiruvanmiyur,10am–9pm,FALSE,
,,,"Bharathi Nagar, Porur, Chennai, Tamil Nadu 600116",13.0335681,80.1583832,600116,Porur,10am–9:30pm,FALSE,
,,,"26, Lakshmi Nagar, 4th Main Rd, Nanganallur, Chennai, Tamil Nadu 600061",12.9824488,80.1884815,600061,Nanganallur,10am–9pm,FALSE,
,,,"7, Shop St, Venkatapuram, Palaniappa Nagar, Valasaravakkam, Chennai, Tamil Nadu 600087",13.0420545,80.1787051,600087,Valasaravakkam,9am–10pm,FALSE,
,,,"No. 776, Old, no. 391, Thiruvottiyur High Rd, Tiruvottiyur, Tamil Nadu 600019",13.1683891,80.3044018,600019,"Tiruvottiyur,",10am–9pm,FALSE,
,,,"6-1/62, Anjugam Nagar, SRP Colony, Kolathur, Chennai, Tamil Nadu 600011",13.1167581,80.2279399,600011,Kolathur,10:30am–9:30pm,FALSE,
,,,"No ,381 Ground and first floor, Velachery Rd, next to Vani Hospital, Chennai, Tamil Nadu 600073",12.922472,80.149964,600073,Velachery Rd,10am–9:30pm,FALSE,
,,,"PMC Mens Obs, Shop no :F9/10 , First floor , Phoenix Market City Mall, No:142, Velachery Rd, Tamil Nadu 600042",12.9912265,80.216653,600042,Velachery Rd,10am–9:30pm,TRUE,Phoenix Market City Mall
,,,"105 & 106, Shop No.2, 1st Avenue, HIG, Mogappair W, Nolambur, Chennai, Tamil Nadu 600037",13.082006,80.1680128,600037,Nolambur,10am–7pm,FALSE,
,,,"522, NH205, Lenin Nagar, Oragadam, Chennai, Tamil Nadu 600062",13.1239275,80.1448955,600062,Oragadam,,FALSE,
,,,"No 6, 21, Velachery Rd, Vengaivasal, Medavakkam, Chennai, Tamil Nadu 600100",12.9175043,80.1913886,600100,Medavakkam,10am–10pm,FALSE,
,,,"214, Mount Poonamallee Rd, Swaminatha Nagar, Kattupakkam, Chennai, Tamil Nadu 600056",13.04345,80.121755,600056,Kattupakkam,10am–9pm,FALSE,
,,,"11, Medavakkam Main Rd, Ayyappan Nagar, Arunachalam Nagar, Keelkattalai, Chennai, Tamil Nadu 600117",12.9598014,80.1872232,600117,Keelkattalai,10am–9:45pm,FALSE,
,,,"Building No. 50-A & 51-A, Jawaharlal Nehru Rd, Vadapalani, Chennai, Tamil Nadu 600026",13.0451137,80.2122084,600026,Vadapalani,10am–9:30pm,FALSE,
,,,"35/1, Rajiv Gandhi IT Expressway, Perungudi, Chennai, Tamil Nadu 600096",12.9738508,80.2503629,600096,Perungudi,10am–9:30pm,FALSE,
,,,"214, 3, Mount Poonamallee Rd, Govindaraj Nagar, Kattupakkam, Chennai, Tamil Nadu 600056",13.0405625,80.1292609,600056,Kattupakkam,10am–9pm,FALSE,
,,,"11, Medavakkam Main Rd, Ayyappan Nagar, Arunachalam Nagar, Keelkattalai, Chennai, Tamil Nadu 600117",12.9598014,80.1872232,600117,Keelkattalai,10am–9:45pm,FALSE,
,,,"Building No. 50-A & 51-A, Jawaharlal Nehru Rd, Vadapalani, Chennai, Tamil Nadu 600026",13.0451137,80.2122084,600026,Vadapalani,10am–9:30pm,FALSE,
,,,"35/1, Rajiv Gandhi IT Expressway, Perungudi, Chennai, Tamil Nadu 600096",12.9738508,80.2503629,600096,Perungudi,10am–9:30pm,FALSE,
,,,"214, 3, Mount Poonamallee Rd, Govindaraj Nagar, Kattupakkam, Chennai, Tamil Nadu 600056",13.0405625,80.1292609,600056,Kattupakkam,10am–9:30pm,FALSE,
,,,,,,,,,,
,Puma,18,"8/1, Ground Floor, 4th Main Rd, Besant Nagar, Chennai, Tamil Nadu 600090",13.0007621,80.2706398,600090,Besant Nagar,10am–9pm,FALSE,
,,,"Shop No, 99, TT Krishnamachari Rd, CIT Colony, Alwarpet, Chennai, Tamil Nadu 600018",13.0411461,80.2587231,600018,CIT Colony,10am–9pm,FALSE,
,,,"Forum Vijaya Mall, No:225,2ndfloor, 183, NSK Salai Rd, Vadapalani, Chennai, Tamil Nadu 600026",13.0498937,80.2095018,600026,Vadapalani,9:30am–9pm,TRUE,Forum Vijaya mall
,,,"Apex Chamber, 20/35, Shop No.1, Ground Floor, Sir Theagaraya Rd, T. Nagar, Chennai, Tamil Nadu 600017",13.0400962,80.2412707,600017,T. Nagar,10am–7pm,FALSE,
,,,"Thandavamoorthy Nagar, 72, Arcot Rd, East Kamakoti Nagar, Karpaga Vinayagar Colony, Valasaravakkam, Chennai, Tamil Nadu 600087",13.0420777,80.1767283,600087,Karpaga Vinayagar Colony,10am–10pm,FALSE,
,,,"No.127, 2nd Floor, Express Avenue, Club House Rd, Express Estate, Royapettah, Chennai, Tamil Nadu 600014",13.0584546,80.2641844,600014,"Express Estate,",10am–10pm,FALSE,
,,,"Phoenix Marketcity, 142, Velachery Rd, Indira Gandhi Nagar, Velachery, Chennai, Tamil Nadu 600042",12.9905058,80.2169764,600042,Indira Gandhi Nagar,10am–10pm,FALSE,
,,,"No: 32/1A, GR towers, 1st floor, Poonamallee High Rd, opp. Miot hospital, Manapakkam, Chennai, Tamil Nadu 600125",13.0693453,80.2251097,600125,Manapakkam,10am–10pm,FALSE,
,,,"Anna Nagar,No-220/82,Y–Block,2ndAvenue, Anna Nagar, Chennai, Tamil Nadu 600040",13.0952453,80.1964083,600040,Anna Nagar,10am–9pm,FALSE,
,,,"Shop No. F 28 FIRST FLOOR No.44 pillaiyar street, Jawaharlal Nehru Rd, Anna Nagar, Chennai, Tamil Nadu 600040",13.0808084,80.1966312,600040,Anna Nagar,10am–9pm,TRUE,Puma Chennai VR Mall
,,,"32/1A, GR Towers, 1st floor, Poonamallee high road, opp. to MIOT Hospital, Manapakkam, Chennai, Tamil Nadu 600125",13.069553,80.2249506,600125,Manapakkam,10am–10pm,FALSE,
,,,"NO-1G, Sea Cliff Conclave, Akkarai, Panaiyur, Chennai, Tamil Nadu 600119",12.8953047,80.247132,600119,Akkarai,10am–10pm,FALSE,
,,,"S1&S2, Sharmila Street, Chitlpakam Village, Tambaram Sanatorium, Tamil Nadu 600047",12.9451497,80.129599,600047,Sharmila Street,Permanently closed,FALSE,
,,,"No-220, 82, Y Block 2nd St, Y Block, Anna Nagar, Chennai, Tamil Nadu 600040",13.0860695,80.2108262,600040,Anna Nagar,10am-10pm,FALSE,
,,,"7. shop in a park. sea off conclave, Sea Cliff Conclave, Akkarai, Panaiyur, Chennai, Tamil Nadu 600119",12.8947472,80.2470756,600119,Akkarai,10am–9pm,FALSE,
,,,"Mount Poonamallee Rd, Murugapillai Nagar, Poonamallee, Chennai, Tamil Nadu 600056",13.0444324,80.1193898,600056,"Murugapillai Nagar,",10am-10pm,FALSE,
,,,"plot no 68, 1st avenue, 2nd Cross St, Vettuvankeni, Chennai, Tamil Nadu 600115",12.9364491,80.2504369,600115,Vettuvankeni,Open 24 hours,FALSE,
,,,"71/1, 1st Main Rd, Gandhi Nagar, Adyar, Chennai, Tamil Nadu 600020",13.009106,80.2581617,600020,Gandhi Nagar,10am–9:30pm,FALSE,
,,,,,,,,,,
,Reebok,15,"CASA Major Rd, Sulaiman Zackria Avenue, Egmore, Chennai, Tamil Nadu 600008",13.0704438,80.2546435,600008,Egmore,10am–9pm,FALSE,
,,,"5,Ground & First Floor,Plot no 1 to 6,VGP Main Road,ECR,Sholinganallur, Chennai, Tamil Nadu 600119",12.9170312,80.2502299,600119,Sholinganallur,10am–9:30pm,FALSE,
,,,"No.4/31,Palavakkam.E.C.R, Tamil Nadu 600041",12.9588766,80.2583544,600041,Palavakkam.E.C.R,10am–9:30pm,FALSE,
,,,"103, SH 49, Sea Cliff Conclave, Akkarai, Panaiyur, Chennai, Tamil Nadu 600119",12.897356,80.2469866,600119,Akkarai,10am–9pm,FALSE,
,,,"Unit NO. F30, VR Mall, #44, Pillaiyar Koil Street, Jawaharlal Nehru Rd, Anna Nagar, Chennai, Tamil Nadu 600040",13.0805465,80.197132,600040,Anna Nagar,No time mentioned ,TRUE,VR Mall
,,,"Mouan swamy, Ground floor,Door No-158,Ambedker statue Red Hills Road, Madan St, Oragadam, Chennai, Tamil Nadu 600053",13.1290163,80.1560727,600053,Madan St,No time mentioned ,FALSE,
,,,"Plot No 487, Kilpauk Garden, Kilpauk, Chennai, Tamil Nadu 600010",13.0836918,80.2394653,600010,Kilpauk,10am–9pm,FALSE,
,,,"GF & FF 239/1-2A,340A/2A 1A Old Mahabalipuram,Rajiv Gandhi Salai,(OMR),Okkiam Thoraipakkam Village, Chennai, Tamil Nadu 600097",12.928647,80.231611,600097,Old Mahabalipuram,10am–9:30pm,FALSE,
,,,"Wangari Plaza, Nochi Kuppam, Chennai, Tamil Nadu 600004",13.0379921,80.2798679,600004,Nochi Kuppam,10:30am–9:30pm,FALSE,
,,,"Bharathi Salai, Police Quarters, Triplicane, Chennai, Tamil Nadu 600014",13.0586413,80.2760457,600014,Triplicane,10am–10:30pm,FALSE,
,,,"35JW+9CX, Thirumangalam, Chennai, Tamil Nadu 600040",13.0809875,80.1961094,600040,Thirumangalam,10am–10pm,FALSE,
,,,"Plot No 126, Shop No: 5- Shop In A Park, Vgp Main Road, Ecr, Water Tank, Akkarai, Chennai, Tamil Nadu 600119",12.8947968,80.2471491,600119,Akkarai,No time mentioned ,FALSE,
,,,"Club House Rd, Express Estate, Thousand Lights, Chennai, Tamil Nadu 600002",13.0606849,80.2638116,600002,Express Estate,10am–10pm,FALSE,
,,,"Shop No. 4, 31, East Coast Rd, Palavakkam, Chennai, Tamil Nadu 600041",12.9605978,80.2561224,600041,Palavakkam,10am–9:30pm,FALSE,
,,,"304, Grand Southern Trunk Rd, next to Krishna Swamy Street, Reserve Bank Colony, Chromepet, Chennai, Tamil Nadu 600044",12.9548271,80.1418932,600044,Reserve Bank Colony,10am–6pm,FALSE,
,,,,,,,,,,
,Reliance Trends,27,"78, 79, Madhavaram High Rd, near Bharat Petroleum, Perambur, Chennai, Tamil Nadu 600011",13.1087488,80.2444306,600011,Perambur,11am–9:30pm,FALSE,
,,,"4Th Avenue Opp, 4953, 1st St, Opposite Blue Star, Anna Nagar, AC Block, Anna Nagar, Chennai, Tamil Nadu 600040",13.0827443,80.2105675,600040,Anna Nagar,11am–9:30pm,FALSE,
,,,"55, Sir Theagaraya Rd, Parthasarathi Puram, T. Nagar, Chennai, Tamil Nadu 600017",13.0402192,80.2402028,600017,T. Nagar,10am–9:30pm,FALSE,
,,,"57, 1st Main Rd, Near Sangeetha Hotel, Gandhi Nagar, Adyar, Chennai, Tamil Nadu 600020",13.0071506,80.2500523,600020,Gandhi Nagar,11am–9:30pm,FALSE,
,,,"391, ASV Crown Plaza, Velachery - Tambaram Main Rd, VGP Selva Nagar, Chennai, Tamil Nadu 600042",12.9716203,80.2196973,600042,VGP Selva Nagar,9am–10pm,TRUE,ASV Crown Plaza
,,,"140/48, N Usman Rd, next to Tanishq Jewellery, T. Nagar, Chennai, Tamil Nadu 600017",13.0433815,80.2320053,600017,T. Nagar,11am–9:30pm,FALSE,
,,,"Ambattur Red Hills Rd, Rajiv Gandhi Nagar, Vijayalakshmi Puram, Ambattur, Chennai, Tamil Nadu 600053",13.1257764,80.152882,600053,Rajiv Gandhi Nagar,11:30am–9:30pm,FALSE,
,,,"2 5, Mogappair West Main Rd, next to bharat petrol pump, Mogappair West, Ambattur Industrial Estate, Chennai, Tamil Nadu 600037",13.0821448,80.1679426,600037,Mogappair West,10am–9:30pm,FALSE,
,,,"5, Rajaji Rd, Tambaram West, Tambaram, Chennai, Tamil Nadu 600045",12.9288188,80.1134736,600045,Tambaram,11am–9:30pm,FALSE,
,,,"Natwest Viceroy, St Peter School, 49, Velachery - Tambaram Main Rd, Pallikaranai, Chennai, Tamil Nadu 600100",12.9287074,80.203257,600100,Pallikaranai,11am–9:30pm,FALSE,
,,,"156, Purasawalkam High Rd, next to Ramraj Cotton, Purasaiwakkam, Chennai, Tamil Nadu 600007",13.085648,80.253229,600007,Purasaiwakkam,11am–9:30pm,FALSE,
,,,"No 41&42 Cth Road Nainiammaal Street, near Sangamam Hotel, Chennai, Tamil Nadu 600053",13.1228298,80.1457848,600053,Nainiammaal Street,11am–9:30pm,FALSE,
,,,"183, Arcot Rd, Near By Maruti Showroom, East Kamakoti Nagar, Karpaga Vinayagar Colony, Valasaravakkam, Chennai, Tamil Nadu 600087",13.03991,80.1701915,600087,East Kamakoti Nagar,11am–9:30pm,FALSE,
,,,"Kannapan Nagar, 45/999, East Coast Rd, Thiruvanmiyur, Chennai, Tamil Nadu 600041",12.9748355,80.2582494,600041,Kannapan Nagar,11am–10pm,FALSE,
,,,"M.G.S Tower, Thiruvottiyur High Road, Chennai, Tamil Nadu 600021",13.1178688,80.2847074,600021,Thiruvottiyur High Road,11am–9:30pm,FALSE,
,,,"VR mall, Anna Nagar West, Chennai, Tamil Nadu",13.0805465,80.197132,,Anna Nagar West,10:30am–9pm,TRUE,VR Mall
,,,"A-201-SF No:2Express Avenue Mall, Club House Rd, Royapettah, Chennai, Tamil Nadu 600002",13.0584546,80.2641844,600002,Royapettah,10am–10pm,TRUE,Express Avenue Mall
,,,"Vivira Mall Old Mahabalipuram Road Navallur, Chennai, Tamil Nadu 603103",12.8504319,80.2262178,603103,Navallur,11am–9:30pm,TRUE,Vivira Mall
,,,"3/440, SH 49, Sakthimoorthiamman Nagar, Palavakkam, Chennai, Tamil Nadu 600041",12.9560359,80.255501,600041,Sakthimoorthiamman Nagar,11am–9:30pm,FALSE,
,,,"Door B, 30 Karthikeyan Salai, Periyar Nagar West, Perambur, Chennai, Tamil Nadu 600082",13.1143039,80.2250998,600082,Periyar Nagar West,9am–10:30pm,FALSE,
,,,"NO:89, A1 Tower, R K, Anna Salai, Chennai, Tamil Nadu 600004",13.0441268,80.2651054,600004,Anna Salai,11am–9:30pm,FALSE,
,,,"Phoenix Market City Mall, Velachery Main Road, Gurunanak College, 142, Velachery Rd, Velachery, Chennai, Tamil Nadu 600042",12.9905058,80.2169764,600042,Velachery,11am–9:30pm,TRUE,Phoenix Market City Mall
,,,"NO.104, 2nd Avenue next to SHAHS, opp. Croma, W Block, Anna Nagar, Chennai, Tamil Nadu 600040",13.0849348,80.216877,600040,Anna Nagar,10am–9:30pm,FALSE,
,,,"Door No.78, Uti Bank, Plot No.2, Medavakkam Main Rd, Madipakkam, Chennai, Tamil Nadu 600091",12.9703676,80.1903616,600091,Madipakkam,11am–9:30pm,FALSE,
,,,"772, Sector 10, K. K. Nagar, Chennai, Tamil Nadu 600078",13.042711,80.193651,600078,K. K. Nagar,9:30am–9pm,FALSE,
,,,"32/1A4A, Mount Poonamallee Rd, Opposite Miot Hospital, Parthasarathy Nagar, Manapakkam, Chennai, Tamil Nadu 600125",13.0324652,80.1631339,600125,Parthasarathy Nagar,11am–9:30pm,FALSE,
,,,"Venn Ponn Building, 412/7, Grand Southern Trunk Rd, Chromepet, Chennai, Tamil Nadu 600044",12.957971,80.144417,600044,Chromepet,11am–9:30pm,FALSE,
,,,,,,,,,,
,Skechers,12,"52/12 103A Mahatma Gandi, Sterling Rd, Salai, Nungambakkam, Chennai, Tamil Nadu 600034",13.0624643,80.2453897,600034,Nungambakkam,11am–9pm,FALSE,
,,,"264, Second Floor, EIPL, Whites Rd, Royapettah, Chennai, Tamil Nadu 600014",13.0587193,80.2639008,600014,Royapettah,9:40am–10pm,FALSE,
,,,"32, Goldcrest Trading Pvt Ltd, D -Monte Colony, TT Krishnamachari Rd, Alwarpet, Chennai, Tamil Nadu 600018",13.0335577,80.2532884,600018,Alwarpet,11am–9pm,FALSE,
,,,"Phoenix Market City, G-11, Velachery Rd, Indira Gandhi Nagar, Velachery, Chennai, Tamil Nadu 600042",12.9905058,80.2169764,600042,Indira Gandhi Nagar,11am–9pm,FALSE,
,,,"No.75/77, Ground floor, KG Marina bay, Santhome High Rd, Santhome, way, Chennai, Tamil Nadu 600004",13.0295463,80.2767509,600004,Santhome,11am–9pm,FALSE,
,,,"Ground Floor, T, 98, 3rd Ave, Block T, Anna Nagar West Extension, Chennai, Tamil Nadu 600040",13.0895879,80.2177521,600040,Anna Nagar,11am–9pm,FALSE,
,,,"SHOP NO:F-27,VR MALL,1ST FLOOR ,NO-44,PILLIYAR KOIL STREET, Jawaharlal Nehru Rd, Anna Nagar, Chennai, Tamil Nadu 600040",13.0805465,80.197132,600040,Anna Nagar,11am–9pm,TRUE,VR Mall
,,,"Bus stop, No. 58, Velachery main Rd, Rajakilpakkam, near Mahalakshmi nagar, Chennai, Tamil Nadu 600073",12.922826,80.1484858,600073,Rajakilpakkam,11am–9pm,FALSE,
,,,"Forum Vijaya Mall, Unit No. 224, Second Floor, 183, Arcot Rd, Vadapalani, Chennai, Tamil Nadu 600026",13.0498937,80.2095018,600026,Vadapalani,11am–9pm,TRUE,Forum Vijaya Mall
,,,"New Sunshine Apartment, 336/2, 2nd Ave, Anna Nagar, Chennai, Tamil Nadu 600040",13.0853979,80.2067044,600040,Anna Nagar,10am–9:30pm,FALSE,
,,,"320/22, Parthasarathypuram, Teynampet, Chennai, Tamil Nadu 600018",13.0410528,80.2581114,600018,Parthasarathypuram,No time mentioned,FALSE,
,,,"304, Grand Southern Trunk Rd, next to Krishna Swamy Street, Reserve Bank Colony, Chromepet, Chennai, Tamil Nadu 600044",12.9548271,80.1418932,600044,Reserve Bank Colony,10am–6pm,FALSE,
,,,,,,,,,,
,Spykar,4,"VR MALL SHOP #1ST FLOOR, Jawaharlal Nehru Rd, Anna Nagar, Chennai, Tamil Nadu 600040",13.0805465,80.197132,600040,Anna Nagar,10:30am–10pm,FALSE,
,,,"142, Velachery Bypass Rd, Indira Gandhi Nagar, Velachery, Chennai, Tamil Nadu 600042",12.9912705,80.2166526,600042,Velachery,No time mentioned,FALSE,
,,,"363, Westcott Rd, Express Estate, Royapettah, Chennai, Tamil Nadu 600014",13.0584513,80.2646161,600014,Royapettah,No time mentioned,FALSE,
,,,"29, Nungambakkam High Rd, Ponnangipuram, Tirumurthy Nagar, Nungambakkam, Chennai, Tamil Nadu 600034",13.0609579,80.246921,600034,Nungambakkam,No time mentioned,FALSE,
,,,,,,,,,,
,Tommy Hilfiger ,3,"47, S 57, 58 & 59, Ground Floor, Express Avenue Mall, 50L, Whites Rd, Royapettah, Chennai, Tamil Nadu 600014",13.0584546,80.2641844,600014,Royapettah,10am–10pm,TRUE,Express Avenue Mall
,,,"7A, 142, Velachery Rd, Indira Gandhi Nagar, Velachery, Chennai, Tamil Nadu 600042",12.9913026,80.2166199,600042,Velachery,No time mentioned,FALSE,
,,,"UG - 10, THE FORUM VIJAYA MALL, 183, N. S. K SALAI, Arcot Rd, Vadapalani, Chennai, Tamil Nadu 600026",13.0498937,80.2095018,600026,Vadapalani,10am–10pm,TRUE,THE FORUM VIJAYA MALL
,,,,,,,,,,
,U.S. Polo Assn.,11,"2nd avenue Anna nagar, Chennai, Tamil Nadu 600040",13.0950772,80.1969259,600040,Anna nagar,No time mentioned,FALSE,
,,,"2nd Floor, Phoenix Mall, Radhakrishnan St, Indira Gandh Nagar, Velachery, Chennai, Tamil Nadu 600042",12.9913026,80.2166199,600042,Velachery,10am–10pm,TRUE,Phoenix Mall
,,,"No 74/1 & 74/2 , Old No 86, Sir Theagaraya Rd, T. Nagar, Chennai, Tamil Nadu 600017",13.0409429,80.2367766,600017,T. Nagar,10am–10pm,FALSE,
,,,"Forum Vijaya Mall, Shop No 24, Ground Floor, Vadapalani, Chennai, Tamil Nadu 600026",13.0498937,80.2095018,600026,Vadapalani,10am–10pm,TRUE,Forum Vijaya Mall
,,,"Ground floor express avenue no 49 ,50 L whites, Road royapettah, Chennai, Tamil Nadu 600014",13.0584108,80.2629694,600014,Royapettah,Open 24 hours,FALSE,
,,,"Vr Chennai, #44, Pillaiyar Koil Street Unit No. F47,First Floor, Chennai, Tamil Nadu 600040",13.081417,80.1961304,600040,Vr Chennai,No time mentioned,FALSE,
,,,"46G5+J46, Ambedkar Nagar, Kolathur, Chennai, Tamil Nadu 600099",13.1265375,80.2077656,600099,Kolathur,No time mentioned,FALSE,
,,,"Shop No 24, Ground, Forum Vijaya Mall, No 183, Arcot Road, Nsk Salai, Floor, Vadapalani, Chennai, Tamil Nadu 600026",13.0498937,80.2095018,600026,Vadapalani,10am–10pm,TRUE,Forum Vijaya Mall
,,,"Shop -F-30, First, No-142, Phoenix Market City St, Chennai, Tamil Nadu 600042",12.991045,80.2164799,600042,Phoenix Market City St,No time mentioned,FALSE,
,,,"No: 81 (8, 2nd Ave, AA Block, Anna Nagar, Chennai, Tamil Nadu 600040",13.08477,80.20859,600040,Anna Nagar,No time mentioned,FALSE,
,,,"No:13/14,Ambedkar Nagar Scheme Area, 200 Feet Radial Rd, Tamil Nadu 600099",26.4683952,82.6915429,600099,200 Feet Radial Rd,No time mentioned,FALSE,
,,,,,,,,,,
,United Colors of Benetton,2,"113, 3rd Ave, Anna Nagar, Anna Nagar West, Anna Nagar, Chennai, Tamil Nadu 600040",13.0856991,80.2175979,600040,Anna Nagar,No time mentioned,FALSE,
,,,"49/50, S124 & S125, 1st floor, Whites Rd, Express Avenue, Royapettah, Chennai, Tamil Nadu 600014",13.0584108,80.2629694,600014,Royapettah,10am–9:30pm,FALSE,
,,,,,,,,,,
,Van Huesan,21,"6 ,GROUND FLOOR ,PLOT, VAN HEUSEN ,NO.G1,DOOR NO.1, NO 52, 1st Main Rd, Gandhi Nagar, Adyar, Chennai, Tamil Nadu 600020",13.0070863,80.2498479,600020,Adyar,10am–10pm,FALSE,
,,,"Unit 005, Green Park Private Entrance, Chidambaram Colony, Chennai, Tamil Nadu 600026",13.050349,80.2093898,600026,Chidambaram Colony,9am–10pm,FALSE,
,,,"Plot No. D, Door No 174, Arcot Rd, Karpaga Vinayagar Colony, Valasaravakkam, Chennai, Tamil Nadu 600087",13.043749,80.1832934,600087,Valasaravakkam,9am–10pm,FALSE,
,,,"38, 2nd Ave, Block AF, Anna Nagar, Anna Nagar West, Anna Nagar, Chennai, Tamil Nadu 600040",13.0849037,80.2045261,600040,Anna Nagar,No time mentioned,FALSE,
,,,"256, Arunachalam Nagar Main Rd, Gandhi Nagar, Madipakkam, Chennai, Tamil Nadu 600117",12.959629,80.1896228,600117,Madipakkam,No time mentioned,FALSE,
,,,"47, 22, Nungambakkam High Rd, Ponnangipuram, Tirumurthy Nagar, Nungambakkam, Chennai, Tamil Nadu 600034",13.060005,80.247334,600034,Nungambakkam,No time mentioned,FALSE,
,,,"VAN HEUSEN ,NO.159,GST ROAD,SURVEY NO. 479/15,ZAMEEN P ALLAVARAM ,PALLAVARAM TALUK, Chromepet, Chennai, Tamil Nadu 600044",12.9536193,80.1419883,600044,Chromepet,No time mentioned,FALSE,
,,,"Annai Plaza, Plot No. 4895 Door No. 103 Door No, 2nd Ave, AB Block, Shanthi Colony, Anna Nagar, Chennai, Tamil Nadu 600040",13.0846011,80.2150387,600040,Anna Nagar,9am–10pm,FALSE,
,,,"VANHEUSEN INNERWEAR Ground Floor, C-29, Second Avenue, next to Annanagar Super Market, Anna Nagar, Chennai, Tamil Nadu 600040",13.08475,80.22161,600040,Anna Nagar,11am–10pm,FALSE,
,,,"142, Velachery Rd, Indira Gandhi Nagar, Velachery, Chennai, Tamil Nadu 600042",12.9913026,80.2166199,600042,Velachery,No time mentioned,FALSE,
,,,"19/8, Kasturba Nagar 3rd Cross St, Venkata Rathinam Nagar, Adyar, Chennai, Tamil Nadu 600020",13.000698,80.25174,600020,Adyar,No time mentioned,FALSE,
,,,"PLOT NO. D,DOOR NO 174,ARCOT ROAD,PAL ANIAPPA NAGAR, Valasaravakkam, Chennai, Tamil Nadu 600087",13.043749,80.1832934,600087,Valasaravakkam,9am–10pm,FALSE,
,,,"Plot No 2, Survey No 274/4, 100 Feet, Taramani Link Rd, Baby Nagar, Velachery, Chennai, Tamil Nadu 600042",12.978815,80.226195,600042,Velachery,10am–10pm,FALSE,
,,,"2732+VJ4, Kasturba Nagar, Adyar, Chennai, Tamil Nadu 600020",13.0046375,80.2515781,600020,Adyar,No time mentioned,FALSE,
,,,"SADIQUE COMPLEX , POT NO 187, SURVEY SURVEY NO.213 , GROUND FLOOR, RAJIV GANDHI SALAI,RAJU NAGAR,TURAIPAKAM, OMR, Chennai, Tamil Nadu 600097",12.8006823,80.2234535,600097,TURAIPAKAM,10am–10pm,FALSE,
,,,"No.70 (Old 88), 17/8 A Narayanan Building, Sir Theagaraya Rd, T. Nagar, Chennai, Tamil Nadu 600017",13.0409443,80.2376363,600017,T. Nagar,9am–10pm,FALSE,
,,,"Shop No. F-61, V R Mall , Metro Zone No.44,Pillaiyar Koil Street, Jawaharlal Nehru Rd, Anna Nagar, Chennai, Tamil Nadu 600040",13.081417,80.1961304,600040,Anna Nagar,10:30am–10pm,TRUE,V R Mall
,,,"S - 161 A,B, Ff 162&163, 1St Floor Whites Rd, Express Avenue Mall, Royapettah, Chennai, Tamil Nadu 600014",13.0584546,80.2641844,600014,Royapettah,10am–10pm,TRUE,Express Avenue Mall
,,,"S-246/Sf, Whites Road , Express Avenue Mall, Chennai, Tamil Nadu 600014",37.7749295,-122.4194155,600014,Express Avenue Mall,10am–10pm,TRUE,Express Avenue Mall
,,,"No.1/5 Part B , Ground & First Floor, Ags Nagar, SH 49, Kottivakkam, Chennai, Tamil Nadu 600041",12.9740295,80.2585199,600041,Kottivakkam,9am–10pm,FALSE,
,,,"No: 111, Nelson Manickam Road, Nungambakkam, Chennai -600 034, opp. Loyola College) ",13.066676,80.230742,600034,Nungambakkam,No time mentioned,FALSE,
,,,,,,,,,,
,Vero Moda,2,"Phoenix Market City Upper Ground Floor, Shop No, 142, Velachery Rd, Chennai, Tamil Nadu 600042",12.9913026,80.2166199,600042,Velachery Rd,No time mentioned,FALSE,
,,,"VR Chennai Ground Floor, #44 Pillayar Koli Street, Jawaharlal Nehru Rd, Anna Nagar, Chennai, Tamil Nadu 600040",13.0805465,80.197132,600040,Anna Nagar,10:30am–10pm,FALSE,
,,,,,,,,,,
,Woodland,10,"Panagal Park, 52, Sir Theagaraya Rd, Parthasarathi Puram, T. Nagar, Chennai, Tamil Nadu 600017",13.0412089,80.2332009,600017,T. Nagar,5am–8pm,FALSE,
,,,"Shop No. 260 Express Avenue Mall, Whites Rd, Royapettah, Chennai, Tamil Nadu 600014",13.0584546,80.2641844,600014,Royapettah,10am–10pm,TRUE,Express Avenue Mall
,,,"1, 4, GP Rd, Border Thottam, Padupakkam, Triplicane, Chennai, Tamil Nadu 600002",13.0647059,80.267481,600002,Padupakkam,No time mentioned,FALSE,
,,,"SHOP # F20, FIRST FLOOR, NO: 44, VR MALL, PILAYAR KOVIL STREET, Jawaharlal Nehru Rd, Anna Nagar, Chennai, Tamil Nadu 600040",13.0807557,80.1973022,600040,Anna Nagar,No time mentioned,FALSE,
,,,"67, Govinda St, Ayyavoo Colony, Aminjikarai, Chennai, Tamil Nadu 600030",13.069046,80.2192322,600030,Aminjikarai,No time mentioned,FALSE,
,,,"Phoenix Market City Mall, New No. 142, Velachery Rd, Next To Raptakos Brett & Co, opp. Maruthi Driving School, Subba Road Avenue, Velachery, Chennai, Tamil Nadu 600042",12.9905058,80.2169764,600042,Velachery,10am–10pm,TRUE,Phoenix Market City Mall
,,,"T T K Road, Alwarpet, Chennai, Tamil Nadu 600018",13.0335577,80.2532884,600018,Alwarpet,No time mentioned,FALSE,
,,,"244, Velachery Rd, Chinmaya Colony, Sembakkam, Rajakilpakkam, Tamil Nadu 600073",12.9228205,80.1531548,600073,Rajakilpakkam,No time mentioned,FALSE,
,,,"Vellala St, Chakravarthy Nagar, Ayanavaram, Chennai, Tamil Nadu 600023",13.0960069,80.2234185,600023,Ayanavaram,No time mentioned,FALSE,
,,,"No.76, New Farrance Rd, Pattalam, Jamalia, Chennai, Tamil Nadu 600112",13.0994155,80.2547201,600112,Jamalia,No time mentioned,FALSE,
,,,,,,,,,,
,Wrangler,5,"67-A, Sir Theagaraya Rd, Pondy Bazaar, Parthasarathi Puram, T. Nagar, Chennai, Tamil Nadu 600017",13.040931,80.237855,600017,T. Nagar,No time mentioned,FALSE,
,,,"No.G-48, Ground Floor,142, Phoenix Market City, Velachery Rd, Indira Gandh Nagar, Velachery, Chennai, Tamil Nadu 600042",12.9919021,80.217322,600042,Velachery,No time mentioned,FALSE,
,,,"The Grand Mall, Dr Seetaram nagar Main Rd, Velachery, Chennai, Tamil Nadu 600042",12.9719724,80.2203988,600042,Velachery,9am–10pm,TRUE,The Grand Mall
,,,"1, 31, East Coast Rd, Valmiki Nagar, Kannappa Nagar, Kottivakkam, Chennai, Tamil Nadu 600041",12.9752186,80.2587444,600041,Kottivakkam,No time mentioned,FALSE,
,,,"Shop No: 1, Taramani Link Rd, Periyar Nagar, Tharamani, Chennai, Tamil Nadu 600113",12.9810192,80.2377355,600113,Tharamani,No time mentioned,FALSE,
,,,,,,,,,,
,Zara,1,"plot no, 142, Velachery Rd, Indira Gandhi Nagar, Velachery, Chennai, Tamil Nadu 600042",12.9913026,80.2166199,600042,Velachery,No time mentioned,FALSE,
,,,,,,,,,,
,Ziwame ,4,"N.S.K, 261 , 217 , 183, The Forum Vijaya Mall Arcot Rd, PT Rajan Rd, Chennai, Tamil Nadu 600026",13.0498937,80.2095018,600026,PT Rajan Rd,10:30am–9:30pm,TRUE,The Forum Vijaya Mall
,,,"F43, First Floor, No.142 Phoenix Market City, Velachery Rd, Velachery, Chennai, Tamil Nadu 600042",12.9905058,80.2169764,600042,Velachery,11am–8pm,FALSE,
,,,"Shop no s5, no 44, second floor, vr mall, jawaharlal Nehru Road Anna Nagar west Chennai Tamil Nadu 600040 IN, Jawaharlal Nehru Rd, Chennai, Tamil Nadu",13.0805465,80.197132,600040,Jawaharlal Nehru Rd,10:30am–10pm,FALSE,
,,,"Express Avenue Mall, Unit No S -239, Second Floor 17, Pattullos Rd, Express Estate, Thousand Lights, Chennai, Tamil Nadu 600002",13.0584546,80.2641844,600002,Thousand Lights,10am–10pm,TRUE,Express Avenue Mall
,,,,,,,,,,
,Zodiac,14,"KNK Building, Nungambakkam High Rd, Srirampuram, Thousand Lights West, Thousand Lights, Chennai, Tamil Nadu 600006",13.0603007,80.2491197,600006,,,FALSE,
,,,"Ampa skywalk mall, Aminjakarai,, Chennai, Tamil Nadu 600029",13.0734711,80.2214432,600029,,,FALSE,
,,,"Unit no. G 27 B, Ground Floor, ""VR – CHENNAI"" located at #44 Pillaiyar Koil Street, Jawaharlal Nehru Rd, Anna Nagar, Chennai, Tamil Nadu 600040",13.080595,80.1971007,600040,,,FALSE,
,,,"No 1 , Iyyah street, mall, road, Iyyah St, Express Estate, Royapettah, Chennai, Tamil Nadu 600014",13.0532358,80.2634747,600014,,,FALSE,
,,,"Forum mall, Arcot Rd, Ottagapalayam, Kannika Puram, Vadapalani, Chennai, Tamil Nadu 600026",13.0498937,80.2095018,600026,,,FALSE,
,,,"Phase-3, G-131/A, Spencers Plaza, 769, Anna Salai, Chennai, Tamil Nadu 600002",13.0615102,80.2614606,600002,,,FALSE,
,,,"Chaitanya Center, Shop No. 12 Khader Nawaz Khan Road, High Road, Off, Nungambakkam, Chennai, Tamil Nadu 600008",13.0602728,80.2492098,600008,,,FALSE,
,,,"Phoenix Mall, Plot No. 142, Velachery Rd, Indira Gandhi Nagar, Velachery, Chennai, Tamil Nadu 600042",12.9913026,80.2166199,600042,,,TRUE,
,,,"Chennai City Centre, Shop No-1, 2nd Floor, Citi Centre Mall, Road, Dr Radha Krishnan Salai, next to Kalyani Hospital, Mylapore, Chennai, Tamil Nadu 600004",13.0429549,80.2737891,600004,,,TRUE,
,,,"Phoenix Market City, Unit No. LG-23, Velachery Rd, Chennai, Tamil Nadu 600042",12.9905058,80.2169764,600042,,,FALSE,
,,,"Chennai City Centre, Shop No-1, 2nd Floor, Citi Centre Mall, Road, Dr Radha Krishnan Salai, next to Kalyani Hospital, Mylapore, Chennai, Tamil Nadu 600004",13.0429549,80.2737891,600004,,,TRUE,
,,,"No: 78/56, Karuneegar St, Paramesh Nagar, Adambakkam, Chennai, Tamil Nadu 600088",12.9922551,80.2013076,600088,,,FALSE,
,,,"42, Post Office Street, Post Office Street, Chennai, Tamil Nadu 600001",13.0943428,80.287727,600001,,,FALSE,
,,,"Dr Natesan Rd, Loganathan Colony, Mylapore, Chennai, Tamil Nadu 600005",13.0437597,80.2742815,600005,,,FALSE,
,,,,,,,,,,
,Zudio,5,"Panagal Park, Prakasam Rd, Near Indian Bank, Parthasarathi Puram, T. Nagar, Chennai, Tamil Nadu 600017",13.04098,80.234024,600017,,,FALSE,
,,,"Spencer Plaza, 769, Anna Salai, Triplicane, Chennai, Tamil Nadu 600002",13.0615102,80.2614606,600002,,,FALSE,
,,,"Selaiyur, Plot No. 153, Velachery Main Road Opp. Selaiyur Police Station, Selaiyur, East, Tambaram, Chennai, Tamil Nadu 600059",12.9227672,80.1351312,600059,,,FALSE,
,,,"Madras Thiruvallur High Rd, near Teja Hospital, Manthoppu Nagar, Ambattur, Chennai, Tamil Nadu 600053",13.1219746,80.1470638,600053,,,FALSE,
,,,"8th, near HP petrol bunk, Saravana Nagar, Bharathi Nagar Extn, Manikanda Puram, Thirumullaivoyal, Chennai, Tamil Nadu 600062",13.1245125,80.1432829,600062,,,FALSE,
,,,,,,,,,,
,Decathalon,5,"Plot No -115/1 , Service Road Maduravoyal - Ambattur Estate, NH West, Nolambur, Mogappair, Chennai, Tamil Nadu 600058",13.0839979,80.1609027,600058,,,FALSE,
,,,"Ramee Mall 365, Poes Road, Anna Salai, Subbarayan Nagar, Teynampet, Chennai, Tamil Nadu 600017",13.0428226,80.2486156,600017,,,TRUE,
,,,"Ground floor, OMR road, Brigade Vantage Building, Santhosh Nagar, Kandancavadi, Perungudi, Chennai, Tamil Nadu 600096",12.9660902,80.247936,600096,,,FALSE,
,,,"Survey No 458 & 459 Near Hindustan University Padur Village, Old Mahabalipuram Rd, Chennai, Tamil Nadu 603103",12.7994241,80.2239974,603103,,,FALSE,
,,,"First Floor, Vivira Mall, Decathlon OMR-VIVIRA MALL, Survey No-33,OMR, Navalur, Chennai, Tamil Nadu 600130",12.8504706,80.2292525,600130,,,TRUE,
,,,,,,,,,,
,Daniel Wellington ,1,"VR Chennai Mall, Shop No G9, Jawaharlal Nehru Rd, Anna Nagar West, Anna Nagar, Chennai, Tamil Nadu 600040",13.0805465,80.197132,600040,,,TRUE,
,,,,,,,,,,
,Casio,7,"Forum mall, SF 207, 2nd Floor, Vijaya, near Kamala Theatre, Vadapalani, Chennai, Tamil Nadu 600026",13.0498937,80.2095018,600026,,,FALSE,
,,,"No AB, 139, opposite Health & Glow, Shanthi Colony, Anna Nagar, Chennai, Tamil Nadu 600040",13.0821895,80.2149197,600040,,,FALSE,
,,,"Shop No S295, 2nd Floor, Express Avenue, Whites Rd, Royapettah, Chennai, Tamil Nadu 600014",13.0584546,80.2641844,600014,,,FALSE,
,,,"Shop No F/16, 1st Floor, VR Mall, Jawaharlal Nehru Rd, near Vee Care Hospital, Anna Nagar, Chennai, Tamil Nadu 600040",13.0793931,80.19825,600040,,,TRUE,
,,,"New No 82/1, Old No 22/1, Sardar Patel Rd, Kasturba Nagar, Adyar, Chennai, Tamil Nadu 600020",13.0061648,80.2532635,600020,,,FALSE,
,,,"137, Velachery - Tambaram Main Rd, V.O.C Nagar, Doctor Seetaram Nagar, Velachery, Chennai, Tamil Nadu 600042",12.9717967,80.22045,600042,,,FALSE,
,,,"Shop No G9, Ground Floor, Phoenix Mall New No 142, Velachery Rd, Velachery, Chennai, Tamil Nadu 600042",12.9905058,80.2169764,600042,,,TRUE,
,,,,,,,,,,
,,,,,,,,,,
,Fossil,2,"sho-10, ground floor, Express avenue, Whites Rd, Royapettah, Chennai, Tamil Nadu 600014",13.0584546,80.2641844,600014,,,FALSE,
,,,"Phoenix Market City, Unit no G24, Lower Ground floor, No.142, Velachery Rd, Velachery, Chennai, Tamil Nadu 600042",12.9913026,80.2166199,600042,,,FALSE,
,,,,,,,,,,
,Lavie,3,"Unit No :S-30, 2nd Floor, 44, Pillaiyar Koil Street, Jawaharlal Nehru Rd, அண்ணா நகர், Chennai, Tamil Nadu 600040",13.030338,80.2086782,600040,,,FALSE,
,,,"600050, 3rd St, Anna Nagar West, Anna Nagar, Chennai, Tamil Nadu 600040",13.084351,80.1999095,600040,,,FALSE,
,,,"Chennai Domestic Airport, kamaraj domestic airport chennai, Grand Southern Trunk Rd, Meenambakkam, Chennai, Tamil Nadu 600027",12.994112,80.1708668,600027,,,FALSE,
,,,,,,,,,,
,Tanishq,14,"No.100, Cathedral Road Gopalapuram Land Mark, opp. to Poes Garden, Chennai, Tamil Nadu 600086",13.0467759,80.2553268,600086,,,FALSE,
,,,"46, N Usman Rd, T Nagar, T. Nagar, Chennai, Tamil Nadu 600017",13.0453457,80.2327686,600017,,,FALSE,
,,,"New No 35 Old No 11, Thirupathy Koil Street 1st cross street, Velachery Bypass Rd, Velachery, Chennai, Tamil Nadu 600042",12.9878882,80.2185236,600042,,,FALSE,
,,,"No.10, Harleys Rd, Davidpuram, Kilpauk, Chennai, Tamil Nadu 600010",13.0834587,80.2428088,600010,,,FALSE,
,,,"Old No-4, New No-11, Besant Avenue Road, Near Royal Enfield Showroom, Adyar, Chennai, Tamil Nadu 600020",13.0078787,80.2635139,600020,,,FALSE,
,,,"Old No.AA3, New, 10, 2nd Ave, Anna Nagar, Chennai, Tamil Nadu 600040",13.0845871,80.2137726,600040,,,FALSE,
,,,"1, Chennai - Tiruvallur High Rd, Shobha Nagar, Ambattur, Chennai, Tamil Nadu 600053",13.1246585,80.1428802,600053,,,FALSE,
,,,"No 38 Soundariya Nagar, Velachery - Tambaram Main Rd, Gowriwakkam, Chennai, Tamil Nadu 600073",12.9223078,80.1639392,600073,,,FALSE,
,,,"# 4 Annai Indira Nagar Layout Mahabalipuram road, SH 49A, Now, Thoraipakkam, Tamil Nadu 600097",12.7121337,80.1864388,600097,,,FALSE,
,,,"9-19-2-5, 1st Main Rd, Karpagam Gardens, Padmanabha Nagar, Chennai, Tamil Nadu 600020",13.0076787,80.2581372,600020,,,FALSE,
,,,"86, GST Main Road, Bharathi Nagar, Urapakkam, Chennai, Tamil Nadu 603210",12.8643252,80.0740738,603210,,,FALSE,
,,,"Unit no 252, 2nd Floor, Express Avenue Mall, Whites Rd, Royapettah, Chennai, Tamil Nadu 600014",13.0584546,80.2641844,600014,,,TRUE,
,,,"185, Arcot Rd, Devikarumariamman Nagar, Valasaravakkam, Chennai, Tamil Nadu 600087",13.0395933,80.1701559,600087,,,FALSE,
,,,"Grand Southern Trunk Rd, Lakshmi Nagar, Rajaji Nagar, Chromepet, Chennai, Tamil Nadu 600044",12.9974663,80.1908107,600044,,,FALSE,
,,,,,,,,,,
,,,,,,,,,,
,World of Titan,27,"Express Avenue, 49, 50 L, Whites Rd, Royapettah, Chennai, Tamil Nadu 600014",13.0584546,80.2641844,600014,,,FALSE,
,,,"No 2, New, 1, 7th Ave, Sri Devi Colony, Ashok Nagar, Chennai, Tamil Nadu 600083",13.0377568,80.2163309,600083,,,FALSE,
,,,"#138, N Usman Rd, Postal Colony, T. Nagar, Chennai, Tamil Nadu 600017",13.0387104,80.2310749,600017,,,FALSE,
,,,"No. 25, 200 Feet Road, Velachery Bypass Rd, Chennai, Tamil Nadu 600042",12.9495836,80.2382069,600042,,,FALSE,
,,,"Apex Chambers, No.20, Sir Theagaraya Rd, Pondy Bazaar, Parthasarathi Puram, T. Nagar, Chennai, Tamil Nadu 600017",13.0397794,80.2411493,600017,,,FALSE,
,,,"B Block, 1/2, 2nd Ave, B Block, Annanagar East, Chennai, Tamil Nadu 600102",13.0847413,80.21411,600102,,,FALSE,
,,,"128/34, Cathedral Rd, Gopalapuram, Chennai, Tamil Nadu 600086",13.048956,80.253847,600086,,,FALSE,
,,,"189, NSK Salai Rd, opp. Kamala Theatre, Vadapalani, Chennai, Tamil Nadu 600026",13.0498333,80.2102491,600026,,,FALSE,
,,,"Phoenix Market City F-58 1St Floor, 142, Velachery Rd, opp. to Funky Monkey, Chennai, Tamil Nadu 600042",12.991303,80.21662,600042,,,FALSE,
,,,"153, Arcot Rd, Indira Nagar, Thandavamoorthy Nagar, Valasaravakkam, Chennai, Tamil Nadu 600087",13.0423135,80.1774972,600087,,,FALSE,
,,,"Dr Natesan Rd, Loganathan Colony, Mylapore, Chennai, Tamil Nadu 600005",13.0437597,80.2742815,600005,,,FALSE,
,,,"#31, 15, 1st Main Road, opp. to Ambika appalam Depot, Gandhi Nagar, Adyar, Chennai, Tamil Nadu 600020",13.006475,80.2518152,600020,,,FALSE,
,,,"Shop 21, Prince Towers, 94-113, Opposite to Abirami Mall, Purasawalkam High Rd, Purasaiwakkam, Chennai, Tamil Nadu 600010",13.0856642,80.2476205,600010,,,TRUE,
,,,"PLOT 1A & 1B, Shobha Nagar, Ambattur, Chennai, Tamil Nadu 600053",13.1247071,80.1428852,600053,,,FALSE,
,,,"176, Puthu Koil Street, Mahalakshmi Nagar, Velachery Rd, Ezhil Nagar, Selaiyur, Chennai, Tamil Nadu 600073",12.9224048,80.1464033,600073,,,FALSE,
,,,"PC3 BLOCK, NO 2, Mogappair West Main Rd, next to BHARAT PETROL, Chennai, Tamil Nadu 600037",13.0819155,80.1674677,600037,,,FALSE,
,,,"27, Muthuranga Mudali St, Tambaram West, Tambaram, Chennai, Tamil Nadu 600045",12.9296439,80.1174725,600045,,,FALSE,
,,,"32B, New # 95, Ground Floor,, Ecr Road, Tiruvanmiyur, Chennai, Tamil Nadu 600041",12.9794415,80.2592847,600041,,,FALSE,
,,,"SHOP NO:1, Old Mahabalipuram Rd, opp. to ARAVIND THEATRE, opp. to Aravind Theatre, Karapakkam, Chennai, Tamil Nadu 600096",12.915347,80.2297946,600096,,,FALSE,
,,,"New No: 50, (70 Feet Road, Siva Elango Salai, Periyar Nagar West, Jawahar Nagar, Perambur, Chennai, Tamil Nadu 600082",13.1144397,80.2276108,600082,,,FALSE,
,,,"Shop No, 127, Chennai - Theni Hwy, Puduvai Nagar West, Chromepet, Chennai, Tamil Nadu 600044",12.9569233,80.1438096,600044,,,FALSE,
,,,"No 1, 1st Main Rd, Nethaji Colony, Nehru Nagar, Adambakkam, Chennai, Tamil Nadu 600088",12.9821887,80.2120595,600088,,,FALSE,
,,,"45, Medavakkam Main Rd, Puzhuthivakkam, Nanganallur, Chennai, Tamil Nadu 600091",12.9744942,80.1920736,600091,,,FALSE,
,,,"Opp to Gopala Krishna Theater.(GKCinemas No184, Mount Poonamallee Rd, Porur, Chennai, Tamil Nadu 600116",13.034071,80.1612845,600116,,,FALSE,
,,,"Old No.166, New No.72,Mannar Swamy Koil Street Opp. To Royapuram Post Office, Chennai, Tamil Nadu 600013",12.9841076,80.1288003,600013,,,FALSE,
,,,"NO:7/476, Velachery main road, junction, Koot Rd, next to Hotel Anjappar, Medavakkam, Chennai, Tamil Nadu 600100",12.9201581,80.1843385,600100,,,FALSE,
,,,"Mobile No : 9940140139, Crown Court, 34, Cathedral Rd, Gopalapuram, Chennai, Tamil Nadu 600086",13.0488543,80.2538155,600086,,,FALSE,
,,,,,,,,,,
,,,,,,,,,,
,Swarovski ,3,"Ground Floor, Express Avenue, Royapettah, Chennai, Tamil Nadu 600014",13.0584546,80.2641844,600014,,,FALSE,
,,,"Anna Nagar West, Anna Nagar West Extension, Chennai, Tamil Nadu 600040",13.083528,80.1944807,600040,,,FALSE,
,,,"X6R8+PJ4, Periyar Nagar, Velachery, Chennai, Tamil Nadu 600042",12.9917625,80.2165781,600042,,,FALSE,
,Aldo,2,"Shop 38, Phoenix Market City, 142, Velachery Rd, Indira Gandhi Nagar, Velachery, Chennai, Tamil Nadu 600042",12.9913026,80.2166199,600042,,,FALSE,
,,,"Whites Rd, Express Estate, Thousand Lights, Chennai, Tamil Nadu 600002",13.0575279,80.2609666,600002,,,FALSE,
,American Tourister,8,"No:336/2 A New sunshine apartments 11th main road, 2nd Ave, Anna Nagar, Chennai, Tamil Nadu 600040",13.0852979,80.2061023,600040,,,FALSE,
,,,"Velachery Bypass Rd, TN Police Housing Colony, Velachery, Chennai, Tamil Nadu 600042",12.9890018,80.2187276,600042,,,FALSE,
,,,"69/71, N Usman Rd, next to Archana sweet, Postal Colony, Parthasarathi Puram, T. Nagar, Chennai, Tamil Nadu 600017",13.0383655,80.2313606,600017,,,FALSE,
,,,"No-925, Velachery Main Rd, Selaiyur, Chennai, Tamil Nadu 600073",12.9226025,80.1449335,600073,,,FALSE,
,,,"Vijayaraghavalu Rd, Vijaya Raghavalu Nagar, Old Washermanpet, Chennai, Tamil Nadu 600021",13.1100281,80.2794053,600021,,,FALSE,
,,,"no 3, Old Twp Rd, Vardharajapuram, Vijayalakshmi Puram, Ambattur, Chennai, Tamil Nadu 600053",13.1214464,80.1494584,600053,,,FALSE,
,,,"314, Valluvar Kottam High Rd, Subba Road Avenue, Nungambakkam, Chennai, Tamil Nadu 600034",13.0663796,80.2429972,600034,,,FALSE,
,,,"No.285/ Near Swamiyar Madam, 1/11, Main Rd, Selaiyur, Rajakilpakkam, Tamil Nadu 600073",8.2900419,77.269317,600073,,,FALSE,
,,,,,,,,,,
,Baggit,4,"No. 2 , Club House Road,, Royapettah,, Express Estate, Royapettah, Chennai, Tamil Nadu, Chennai, Tamil Nadu 600002",13.0587194,80.2639421,600002,,,FALSE,
,,,"F-27, 142, Velachery Rd, Indira Gandhi Nagar, Velachery, Chennai, Tamil Nadu 600042",12.9905058,80.2169764,600042,,,FALSE,
,,,"VR Chennai, 2nd floor, Jawaharlal Nehru Rd, Anna Nagar West, Chennai, Tamil Nadu 600040",13.0805465,80.197132,600040,,,FALSE,
,,,"Old Mahabalipuram Rd, Egattur, Tamil Nadu 603103",12.8329936,80.2288676,603103,,,FALSE,
,,,,,,,,,,
,Charles & Keith,7,"Whites Rd, Express Estate, Aayiram Vilakku, Chennai, Tamil Nadu 600002",13.0575279,80.2609666,600002,,,FALSE,
,,,"142, Velachery Main Rd, Indira Gandhi Nagar, Velachery, Chennai, Tamil Nadu 600042",12.9913026,80.2166199,600042,,,FALSE,
,,,"Raja Annamalai Puram, Chennai, Tamil Nadu 600028",13.0189785,80.2628823,600028,,,FALSE,
,Clarks,,"Express Infrastructure Private Limited, No 2 Club House Road, Mount Road, S- 16, UGF Express Avenue, Chennai, Tamil Nadu 600002",13.0614482,80.2636027,600002,,,FALSE,
,,,"Unit - 26, 142, Velachery Rd, Indira Gandhi Nagar, Velachery, Chennai, Tamil Nadu 600042",12.9906627,80.2170448,600042,,,FALSE,
,,,"No. 9, Khader Nawaz Khan Rd, Thousand Lights West, Nungambakkam, Chennai, Tamil Nadu 600006",13.0599996,80.2481123,600006,,,FALSE,
,,,"279F+HWP, MRC Nagar, Raja Annamalai Puram, Chennai, Tamil Nadu 600028",13.0189625,80.2748281,600028,,,FALSE,
,,,,,,,,,,
,Converse,1,"Shop No. S110B,First Floor, Express Avenue Mall #49, 50L, Whites Rd, Royapettah, Chennai, Tamil Nadu 600014",13.0586189,80.2640307,600014,,,TRUE,
,,,,,,,,,,
,Hush Puppies,1,"The Marina Mall, Old Mahabalipuram Road, Egattur, Chennai, Tamil Nadu 603103",12.8360379,80.2293307,603103,,,TRUE,
,,,,,,,,,,
,Vans,0,,,,,,,,
,,,,,,,,,,
,,,,,,,,,,
,Wildcraft,13,"Rashmi Towers, DBL Store No.1, Valluvar Kottam High Rd, opp. to Harrison Hotel, Nungambakkam, Chennai, Tamil Nadu 600034",13.0674253,80.2431126,600034,,,FALSE,
,,,"361, Avvai Shanmugam Salai, below Coffee Day, Gopalapuram, Chennai, Tamil Nadu 600086",13.0496609,80.2571963,600086,,,FALSE,
,,,"Shop No, 201, TT Krishnamachari Rd, Seetammal Colony, Seethammal Colony, MIG Colony, Alwarpet, Chennai, Tamil Nadu 600018",13.0350508,80.2542157,600018,,,FALSE,
,,,"Bus Stop, No.42, Ground Floor, Arcot Rd, near Valasaravakkam, Valasaravakkam, Chennai, Tamil Nadu 600087",13.0503593,80.2068584,600087,,,FALSE,
,,,"#400 & #401 OMR, Rajiv Gandhi IT Expy, Nehru Nagar, Perungudi, Chennai, Tamil Nadu 600096",12.9717534,80.24979,600096,,,FALSE,
,,,"Ground Floor, # 1235, 18th Main Rd, Anna Nagar West, Kambar Colony, I Block, Anna Nagar, Chennai, Tamil Nadu 600040",13.095,80.202526,600040,,,FALSE,
,,,"Plot No.315, Shop No.53, Ground Floor Drowpathi Amman Kovil 1st Cross Street, Velachery Bypass Rd, Velachery, Chennai, Tamil Nadu 600042",12.9864879,80.2222005,600042,,,FALSE,
,,,"Shop G - 52, 142, Velachery Rd, Indira Gandhi Nagar, Velachery, Chennai, Tamil Nadu 600042",12.9919713,80.2169576,600042,,,FALSE,
,,,"174, Avvai Shanmugam Salai, Gopalapuram, Chennai, Tamil Nadu 600086",13.0496594,80.2571265,600086,,,FALSE,
,,,"11, Medavakkam Main Rd, Ayyappan Nagar, Arunachalam Nagar, Keelkattalai, Chennai, Tamil Nadu 600117",12.9598014,80.1872232,600117,,,FALSE,
,,,"87, 98A, Velachery Rd, Opp. Bharath Petrol Bunk, Pallikaranai, Chennai, Tamil Nadu 600100",12.92268,80.1976117,600100,,,FALSE,
,,,"NO 16 SUNDARAMBAL NAGAR GST ROAD SANATORIUM TAMBARAM, opp. TB HOSPITAL, Chennai, Tamil Nadu 600047",12.9447476,80.1304009,600047,,,FALSE,
,,,"Forum Vijaya Mall, #UG-12, Ground Floor, 183, N.S.K. Salal, Arcot Rd, Vadapalani, Chennai, Tamil Nadu 600026",13.0498937,80.2095018,600026,,,TRUE,